{
  "type": "FeatureCollection",
  "name": "Kulturní a národní kulturní památky v Mariánských Lázních",
  "crs": {
    "type": "name",
    "properties": {
      "name": "urn:ogc:def:crs:OGC:1.3:CRS84"
    }
  },
  "souradnicovy_system": "WGS-84 (EPSG:4326), pořadí [délka, šířka]",
  "prevedeno_z": "S-JTSK / Křovák East North (EPSG:5514)",
  "parametry_prevodu": {
    "dx_m": 570.8,
    "dy_m": 85.7,
    "dz_m": 462.8,
    "rx_vteriny": -4.998,
    "ry_vteriny": -1.587,
    "rz_vteriny": -5.261,
    "meritko_ppm": 3.56,
    "konvence": "coordinate frame"
  },
  "zdroj": "NPÚ — otevřená data ÚSKP + geoportál NPÚ",
  "licence": "CC BY 4.0 — Národní památkový ústav. Data lze užít i komerčně, povinností je uvést původ a odkaz na licenci. https://creativecommons.org/licenses/by/4.0/deed.cs | body: CC BY-SA 4.0 — Národní památkový ústav (uvedeno v poli copyrightText služby geoportálu). Odvozená díla se musí sdílet pod stejnou licencí.",
  "dolozka": "datový podklad: Národní památkový ústav, https://www.pamatkovykatalog.cz/, datum aktualizace 31.07.2026, licence CC BY 4.0",
  "obec": {
    "kod": "554642",
    "nazev": "Mariánské Lázně",
    "okres": "Cheb"
  },
  "generovano": "2026-08-17",
  "datum_aktualizace_uskp": "31.07.2026",
  "bez_souradnic": 0,
  "vysvetlivky": {
    "rejstrik": "rejstříkové číslo Ústředního seznamu kulturních památek ČR",
    "ochrana": "typ památkové ochrany podle zákona 20/1987 Sb.",
    "kategorie": "objekt / část objektu / areál / soubor / území",
    "rok_zapisu": "rok, od kterého ochrana platí (datumOchranyOd v geoportálu NPÚ)",
    "unesco": "leží bod uvnitř statku světového dědictví UNESCO",
    "v_uzemich": "plošná ochrana, do které bod spadá",
    "sjtsk": "původní souřadnice zdroje v EPSG:5514 [východ, sever]",
    "lokalizace": "jak je bod ve zdroji určen",
    "prstav_id": "identifikátor právního stavu ochrany, spojuje ÚSKP s geoportálem"
  },
  "features": [
    {
      "type": "Feature",
      "geometry": {
        "type": "Point",
        "coordinates": [
          12.7024488,
          49.9778962
        ]
      },
      "properties": {
        "zdroj": "NPÚ, Ústřední seznam kulturních památek ČR",
        "sada": "kulturní památky",
        "katalogove_cislo": "1000129175",
        "nazev": "Městské divadlo",
        "kategorie": "objekt",
        "ochrana": "kulturní památka",
        "rejstrik": "18463/4-4047",
        "prstav_id": "129175",
        "aktstav_id": "18100057",
        "adresa": "Třebízského 106/1, Mariánské Lázně",
        "obec": "Mariánské Lázně",
        "cast_obce": "Mariánské Lázně",
        "katastralni_uzemi": "Mariánské Lázně",
        "okres": "Cheb",
        "kraj": "Karlovarský kraj",
        "anotace": "Stavba Městského divadla od Fridricha Zicklera z roku 1868 v novorenesanční podobě, byla přestavěna roku 1905 v secesním stylu podle návrhu architekta Alfréda Walchera z Montheimu.",
        "url": "https://www.pamatkovykatalog.cz/1000129175",
        "sjtsk": [
          -866392.81,
          -1036876.0
        ],
        "lokalizace": "hlavní definiční bod",
        "chraneno": true,
        "faze_ochrany": "památkově chráněno",
        "rok_zapisu": 1958,
        "ruian_stavebni_objekt": 20685467,
        "v_uzemich": [
          {
            "kod": "PR",
            "nazev": "Mariánské Lázně a Valy s lázeňskou kulturní krajinou"
          },
          {
            "kod": "PZ",
            "nazev": "Mariánské Lázně"
          },
          {
            "kod": "SD",
            "nazev": "Slavná lázeňská města Evropy"
          }
        ],
        "unesco": true
      }
    },
    {
      "type": "Feature",
      "geometry": {
        "type": "Point",
        "coordinates": [
          12.7042473,
          49.9782578
        ]
      },
      "properties": {
        "zdroj": "NPÚ, Ústřední seznam kulturních památek ČR",
        "sada": "kulturní památky",
        "katalogove_cislo": "1000142630",
        "nazev": "evangelický kostel",
        "kategorie": "objekt",
        "ochrana": "kulturní památka",
        "rejstrik": "31133/4-4240",
        "prstav_id": "142630",
        "aktstav_id": "18100210",
        "adresa": "Mírové náměstí 90/7, Mariánské Lázně",
        "obec": "Mariánské Lázně",
        "cast_obce": "Mariánské Lázně",
        "katastralni_uzemi": "Mariánské Lázně",
        "okres": "Cheb",
        "kraj": "Karlovarský kraj",
        "anotace": "Jedná se o jednoduchou patrovou stavbu čtvercového půdorysu postavenou v letech 1853–1857 dle projektu G. Ch. Cantiana z Berlína. V roce 1921 byla na střechu objektu osazena sanktusová věž. V lodi kostela se nachází dřevěný malovaný podhled.",
        "url": "https://www.pamatkovykatalog.cz/1000142630",
        "sjtsk": [
          -866259.06,
          -1036856.81
        ],
        "lokalizace": "hlavní definiční bod",
        "chraneno": true,
        "faze_ochrany": "památkově chráněno",
        "rok_zapisu": 1958,
        "ruian_stavebni_objekt": 24566501,
        "v_uzemich": [
          {
            "kod": "PR",
            "nazev": "Mariánské Lázně a Valy s lázeňskou kulturní krajinou"
          },
          {
            "kod": "PZ",
            "nazev": "Mariánské Lázně"
          },
          {
            "kod": "SD",
            "nazev": "Slavná lázeňská města Evropy"
          }
        ],
        "unesco": true
      }
    },
    {
      "type": "Feature",
      "geometry": {
        "type": "Point",
        "coordinates": [
          12.7029818,
          49.9748307
        ]
      },
      "properties": {
        "zdroj": "NPÚ, Ústřední seznam kulturních památek ČR",
        "sada": "kulturní památky",
        "katalogove_cislo": "1000138375",
        "nazev": "hotel - zotavovna Polonia",
        "kategorie": "objekt",
        "ochrana": "kulturní památka",
        "rejstrik": "27146/4-4237",
        "prstav_id": "138375",
        "aktstav_id": "18100207",
        "adresa": "Hlavní třída 50/34, Mariánské Lázně",
        "obec": "Mariánské Lázně",
        "cast_obce": "Mariánské Lázně",
        "katastralni_uzemi": "Mariánské Lázně",
        "okres": "Cheb",
        "kraj": "Karlovarský kraj",
        "anotace": "Jde o řadový dům o 5 NP. Hlavní průčelí je sedmiosé, středovou osu tvoří rizalit zakončený ve střeše vížkou. Ve 2. a 3. NP probíhají v celé šíři průčelí balkóny. Fasáda je velmi zdobná v duchu historizujícího stylu.",
        "url": "https://www.pamatkovykatalog.cz/1000138375",
        "sjtsk": [
          -866409.31,
          -1037218.69
        ],
        "lokalizace": "hlavní definiční bod",
        "chraneno": true,
        "faze_ochrany": "památkově chráněno",
        "rok_zapisu": 1958,
        "ruian_stavebni_objekt": 20685220,
        "v_uzemich": [
          {
            "kod": "PR",
            "nazev": "Mariánské Lázně a Valy s lázeňskou kulturní krajinou"
          },
          {
            "kod": "PZ",
            "nazev": "Mariánské Lázně"
          },
          {
            "kod": "SD",
            "nazev": "Slavná lázeňská města Evropy"
          }
        ],
        "unesco": true
      }
    },
    {
      "type": "Feature",
      "geometry": {
        "type": "Point",
        "coordinates": [
          12.7051431,
          49.9673627
        ]
      },
      "properties": {
        "zdroj": "NPÚ, Ústřední seznam kulturních památek ČR",
        "sada": "kulturní památky",
        "katalogove_cislo": "1000148047",
        "nazev": "hotel - zotavovna di Vittorio",
        "kategorie": "objekt",
        "ochrana": "kulturní památka",
        "rejstrik": "36206/4-4246",
        "prstav_id": "148047",
        "aktstav_id": "18100216",
        "adresa": "Anglická 281/8, Mariánské Lázně",
        "obec": "Mariánské Lázně",
        "cast_obce": "Mariánské Lázně",
        "katastralni_uzemi": "Mariánské Lázně",
        "okres": "Cheb",
        "kraj": "Karlovarský kraj",
        "anotace": "Jedno až dvoupodlažní klasicistní lázeňská budova obdélného členěného půdorysu, původně zahrnovala litinovou kolonádu, dnes je přestavěná. Interiér je hodnotný štukovou výzdobou.",
        "url": "https://www.pamatkovykatalog.cz/1000148047",
        "sjtsk": [
          -866388.38,
          -1038063.38
        ],
        "lokalizace": "hlavní definiční bod",
        "chraneno": true,
        "faze_ochrany": "památkově chráněno",
        "rok_zapisu": 1958,
        "ruian_stavebni_objekt": 20686676,
        "v_uzemich": [
          {
            "kod": "PR",
            "nazev": "Mariánské Lázně a Valy s lázeňskou kulturní krajinou"
          },
          {
            "kod": "PZ",
            "nazev": "Mariánské Lázně"
          },
          {
            "kod": "SD",
            "nazev": "Slavná lázeňská města Evropy"
          }
        ],
        "unesco": true
      }
    },
    {
      "type": "Feature",
      "geometry": {
        "type": "Point",
        "coordinates": [
          12.7127269,
          49.976871
        ]
      },
      "properties": {
        "zdroj": "NPÚ, Ústřední seznam kulturních památek ČR",
        "sada": "kulturní památky",
        "katalogove_cislo": "1000149414",
        "nazev": "hotel Esplanade",
        "kategorie": "objekt",
        "ochrana": "kulturní památka",
        "rejstrik": "37496/4-4238",
        "prstav_id": "149414",
        "aktstav_id": "18100208",
        "adresa": "Karlovarská 434/15, Mariánské Lázně",
        "obec": "Mariánské Lázně",
        "cast_obce": "Mariánské Lázně",
        "katastralni_uzemi": "Mariánské Lázně",
        "okres": "Cheb",
        "kraj": "Karlovarský kraj",
        "anotace": "Solitérní lázeňský hotel Esplanade postavený hoteliérem Josefem Zischkou v letech 1910-1911 podle návrhu Arnolda Heymanna ve stylu geometrizující secese.",
        "url": "https://www.pamatkovykatalog.cz/1000149414",
        "sjtsk": [
          -865683.13,
          -1037105.81
        ],
        "lokalizace": "hlavní definiční bod",
        "chraneno": true,
        "faze_ochrany": "památkově chráněno",
        "rok_zapisu": 1958,
        "ruian_stavebni_objekt": 24567213,
        "v_uzemich": [
          {
            "kod": "PR",
            "nazev": "Mariánské Lázně a Valy s lázeňskou kulturní krajinou"
          },
          {
            "kod": "PZ",
            "nazev": "Mariánské Lázně"
          },
          {
            "kod": "SD",
            "nazev": "Slavná lázeňská města Evropy"
          }
        ],
        "unesco": true
      }
    },
    {
      "type": "Feature",
      "geometry": {
        "type": "Point",
        "coordinates": [
          12.7204843,
          49.9723244
        ]
      },
      "properties": {
        "zdroj": "NPÚ, Ústřední seznam kulturních památek ČR",
        "sada": "kulturní památky",
        "katalogove_cislo": "1000138371",
        "nazev": "hotel Juniorhotel Krakonoš",
        "kategorie": "areál",
        "ochrana": "kulturní památka",
        "rejstrik": "27142/4-4248",
        "prstav_id": "138371",
        "aktstav_id": "18100218",
        "adresa": "č.p. 591, Mariánské Lázně",
        "obec": "Mariánské Lázně",
        "cast_obce": "Mariánské Lázně",
        "katastralni_uzemi": "Mariánské Lázně",
        "okres": "Cheb",
        "kraj": "Karlovarský kraj",
        "anotace": "Areál lázeňského domu se skládá z hotelové budovy Krakonoš, sochy Krakonoše a sousoší lesních skřítků. Budova byla postavena 1901–1903 podle projektu Arnolda Heymanna. Je trojkřídlá, střední část je nejvyšší, s nejvíce členitou fasádou, ukončena věží.",
        "url": "https://www.pamatkovykatalog.cz/1000138371",
        "sjtsk": [
          -865214.13,
          -1037693.5
        ],
        "lokalizace": "hlavní definiční bod",
        "chraneno": true,
        "faze_ochrany": "památkově chráněno",
        "rok_zapisu": 1958,
        "ruian_stavebni_objekt": 24567442,
        "v_uzemich": [
          {
            "kod": "PR",
            "nazev": "Mariánské Lázně a Valy s lázeňskou kulturní krajinou"
          },
          {
            "kod": "SD",
            "nazev": "Slavná lázeňská města Evropy"
          }
        ],
        "unesco": true
      }
    },
    {
      "type": "Feature",
      "geometry": {
        "type": "Point",
        "coordinates": [
          12.702959,
          49.9775035
        ]
      },
      "properties": {
        "zdroj": "NPÚ, Ústřední seznam kulturních památek ČR",
        "sada": "kulturní památky",
        "katalogove_cislo": "1000157090",
        "nazev": "hotel Praha",
        "kategorie": "objekt",
        "ochrana": "kulturní památka",
        "rejstrik": "44705/4-4233",
        "prstav_id": "157090",
        "aktstav_id": "18100203",
        "adresa": "Hlavní třída 67/8, Mariánské Lázně",
        "obec": "Mariánské Lázně",
        "cast_obce": "Mariánské Lázně",
        "katastralni_uzemi": "Mariánské Lázně",
        "okres": "Cheb",
        "kraj": "Karlovarský kraj",
        "anotace": "Nárožní řadový dům obdélného půdorysu je čtyřpodlažní s mansardovým patrem, s nárožními rizality ukončenými vížkami, v hlavním průčelí vystupuje polygonální arkýř. Z J strany přiléhá jednopatrová přístavba s osmistěnným tamburem. Fasáda je historizující.",
        "url": "https://www.pamatkovykatalog.cz/1000157090",
        "sjtsk": [
          -866363.63,
          -1036924.94
        ],
        "lokalizace": "hlavní definiční bod",
        "chraneno": true,
        "faze_ochrany": "památkově chráněno",
        "rok_zapisu": 1958,
        "ruian_stavebni_objekt": 24566390,
        "v_uzemich": [
          {
            "kod": "PR",
            "nazev": "Mariánské Lázně a Valy s lázeňskou kulturní krajinou"
          },
          {
            "kod": "PZ",
            "nazev": "Mariánské Lázně"
          },
          {
            "kod": "SD",
            "nazev": "Slavná lázeňská města Evropy"
          }
        ],
        "unesco": true
      }
    },
    {
      "type": "Feature",
      "geometry": {
        "type": "Point",
        "coordinates": [
          12.7018455,
          49.9744087
        ]
      },
      "properties": {
        "zdroj": "NPÚ, Ústřední seznam kulturních památek ČR",
        "sada": "kulturní památky",
        "katalogove_cislo": "1000132525",
        "nazev": "kaple Anglikánská",
        "kategorie": "objekt",
        "ochrana": "kulturní památka",
        "rejstrik": "21626/4-3785",
        "prstav_id": "132525",
        "aktstav_id": "18100001",
        "adresa": "Ruská 98/5, Mariánské Lázně",
        "obec": "Mariánské Lázně",
        "cast_obce": "Mariánské Lázně",
        "katastralni_uzemi": "Mariánské Lázně",
        "okres": "Cheb",
        "kraj": "Karlovarský kraj",
        "anotace": "Pseudogotickou anglikánskou kapli nechala vystavět Ann Scott of Rondo podle plánů londýnského architekta Williama Burgese místním stavitelem Fridrichem Zicklerem. Kaple byla roku 1879 vysvěcena a zasvěcená Ježíši Kristu (\"Christ Church\").",
        "url": "https://www.pamatkovykatalog.cz/1000132525",
        "sjtsk": [
          -866497.25,
          -1037252.06
        ],
        "lokalizace": "hlavní definiční bod",
        "chraneno": true,
        "faze_ochrany": "památkově chráněno",
        "rok_zapisu": 1958,
        "ruian_stavebni_objekt": 24566543,
        "v_uzemich": [
          {
            "kod": "PR",
            "nazev": "Mariánské Lázně a Valy s lázeňskou kulturní krajinou"
          },
          {
            "kod": "PZ",
            "nazev": "Mariánské Lázně"
          },
          {
            "kod": "SD",
            "nazev": "Slavná lázeňská města Evropy"
          }
        ],
        "unesco": true
      }
    },
    {
      "type": "Feature",
      "geometry": {
        "type": "Point",
        "coordinates": [
          12.7027394,
          49.9816661
        ]
      },
      "properties": {
        "zdroj": "NPÚ, Ústřední seznam kulturních památek ČR",
        "sada": "kulturní památky",
        "katalogove_cislo": "1000119004",
        "nazev": "kaple Bolestné P. Marie",
        "kategorie": "objekt",
        "ochrana": "kulturní památka",
        "rejstrik": "29254/4-5187",
        "prstav_id": "119004",
        "aktstav_id": "10916275",
        "adresa": null,
        "obec": "Mariánské Lázně",
        "cast_obce": "Mariánské Lázně",
        "katastralni_uzemi": "Mariánské Lázně",
        "okres": "Cheb",
        "kraj": "Karlovarský kraj",
        "anotace": "Pseudogotickou kapli nechal vystavět ředitel místního divadla Julius Laska. Plány a výstavbu realizoval mariánskolázeňský stavitel Josef Forberich. Slavnostně byla vysvěcená 26. července 1909 opatem tepelského kláštera Gilbertem Helmerem.",
        "url": "https://www.pamatkovykatalog.cz/1000119004",
        "sjtsk": [
          -866305.52,
          -1036465.36
        ],
        "lokalizace": "hlavní definiční bod",
        "chraneno": true,
        "faze_ochrany": "památkově chráněno",
        "rok_zapisu": 2000,
        "ruian_stavebni_objekt": null,
        "v_uzemich": [
          {
            "kod": "PR",
            "nazev": "Mariánské Lázně a Valy s lázeňskou kulturní krajinou"
          },
          {
            "kod": "SD",
            "nazev": "Slavná lázeňská města Evropy"
          }
        ],
        "unesco": true
      }
    },
    {
      "type": "Feature",
      "geometry": {
        "type": "Point",
        "coordinates": [
          12.702063,
          49.9671245
        ]
      },
      "properties": {
        "zdroj": "NPÚ, Ústřední seznam kulturních památek ČR",
        "sada": "kulturní památky",
        "katalogove_cislo": "1000140160",
        "nazev": "knihovna",
        "kategorie": "objekt",
        "ochrana": "kulturní památka",
        "rejstrik": "28828/4-4249",
        "prstav_id": "140160",
        "aktstav_id": "18100219",
        "adresa": "Hlavní třída 370/3, Mariánské Lázně",
        "obec": "Mariánské Lázně",
        "cast_obce": "Mariánské Lázně",
        "katastralni_uzemi": "Mariánské Lázně",
        "okres": "Cheb",
        "kraj": "Karlovarský kraj",
        "anotace": "Solitérní vila Hanse Turby vystavěná v roce 1904 podle projektu chebského stavitele Ignaze Königa ve stylu pozdního historismu. Na průčelí je osazena reliéfní deska Sigmunda Freuda od Vítězslava Eibla z roku 2002, upomínající na jeho zdejší pobyt.",
        "url": "https://www.pamatkovykatalog.cz/1000140160",
        "sjtsk": [
          -866610.75,
          -1038054.38
        ],
        "lokalizace": "hlavní definiční bod",
        "chraneno": true,
        "faze_ochrany": "památkově chráněno",
        "rok_zapisu": 1958,
        "ruian_stavebni_objekt": 24567141,
        "v_uzemich": [
          {
            "kod": "PR",
            "nazev": "Mariánské Lázně a Valy s lázeňskou kulturní krajinou"
          },
          {
            "kod": "PZ",
            "nazev": "Mariánské Lázně"
          },
          {
            "kod": "SD",
            "nazev": "Slavná lázeňská města Evropy"
          }
        ],
        "unesco": true
      }
    },
    {
      "type": "Feature",
      "geometry": {
        "type": "Point",
        "coordinates": [
          12.7072429,
          49.9623228
        ]
      },
      "properties": {
        "zdroj": "NPÚ, Ústřední seznam kulturních památek ČR",
        "sada": "kulturní památky",
        "katalogove_cislo": "1000139697",
        "nazev": "kolonáda Ferdinandova pramene",
        "kategorie": "areál",
        "ochrana": "kulturní památka",
        "rejstrik": "28397/4-4258",
        "prstav_id": "139697",
        "aktstav_id": "18100228",
        "adresa": "Anglická 270/49, Mariánské Lázně",
        "obec": "Mariánské Lázně",
        "cast_obce": "Mariánské Lázně",
        "katastralni_uzemi": "Mariánské Lázně",
        "okres": "Cheb",
        "kraj": "Karlovarský kraj",
        "anotace": "Areál se skládá z objektu kolonády a staveb provozního charakteru. Empírová kolonáda byla postavena roku 1827 na popud tepelského opata Reitenbergera.",
        "url": "https://www.pamatkovykatalog.cz/1000139697",
        "sjtsk": [
          -866328.81,
          -1038640.75
        ],
        "lokalizace": "hlavní definiční bod",
        "chraneno": true,
        "faze_ochrany": "památkově chráněno",
        "rok_zapisu": 1958,
        "ruian_stavebni_objekt": 24566942,
        "v_uzemich": [
          {
            "kod": "PR",
            "nazev": "Mariánské Lázně a Valy s lázeňskou kulturní krajinou"
          },
          {
            "kod": "PZ",
            "nazev": "Mariánské Lázně"
          },
          {
            "kod": "SD",
            "nazev": "Slavná lázeňská města Evropy"
          }
        ],
        "unesco": true
      }
    },
    {
      "type": "Feature",
      "geometry": {
        "type": "Point",
        "coordinates": [
          12.7080971,
          49.9760002
        ]
      },
      "properties": {
        "zdroj": "NPÚ, Ústřední seznam kulturních památek ČR",
        "sada": "kulturní památky",
        "katalogove_cislo": "1000147954",
        "nazev": "kostel Nanebevzetí Panny Marie",
        "kategorie": "objekt",
        "ochrana": "kulturní památka",
        "rejstrik": "36117/4-53",
        "prstav_id": "147954",
        "aktstav_id": "18242433",
        "adresa": "Goethovo náměstí 110/31, Mariánské Lázně",
        "obec": "Mariánské Lázně",
        "cast_obce": "Mariánské Lázně",
        "katastralni_uzemi": "Mariánské Lázně",
        "okres": "Cheb",
        "kraj": "Karlovarský kraj",
        "anotace": "Monumentální kostel Nanebevzetí Panny Marie dominující Goethovu náměstí byl postaven v letech 1844–1848 podle plánů německého architekta J. G. Gutensohna v neobyzantském stylu.",
        "url": "https://www.pamatkovykatalog.cz/1000147954",
        "sjtsk": [
          -866026.38,
          -1037148.63
        ],
        "lokalizace": "hlavní definiční bod",
        "chraneno": true,
        "faze_ochrany": "památkově chráněno",
        "rok_zapisu": 1958,
        "ruian_stavebni_objekt": 24566594,
        "v_uzemich": [
          {
            "kod": "PR",
            "nazev": "Mariánské Lázně a Valy s lázeňskou kulturní krajinou"
          },
          {
            "kod": "PZ",
            "nazev": "Mariánské Lázně"
          },
          {
            "kod": "SD",
            "nazev": "Slavná lázeňská města Evropy"
          }
        ],
        "unesco": true
      }
    },
    {
      "type": "Feature",
      "geometry": {
        "type": "Point",
        "coordinates": [
          12.7203811,
          49.9523431
        ]
      },
      "properties": {
        "zdroj": "NPÚ, Ústřední seznam kulturních památek ČR",
        "sada": "kulturní památky",
        "katalogove_cislo": "1632084673",
        "nazev": "kostel sv. Antonína Paduánského s farou",
        "kategorie": "areál",
        "ochrana": "kulturní památka",
        "rejstrik": "102224",
        "prstav_id": "632084673",
        "aktstav_id": "10925430",
        "adresa": "Ke Kostelu, Úšovice, Mariánské Lázně",
        "obec": "Mariánské Lázně",
        "cast_obce": "Úšovice",
        "katastralni_uzemi": "Úšovice",
        "okres": "Cheb",
        "kraj": "Karlovarský kraj",
        "anotace": "Pozdně barokní kostel postavený roku 1790 na místě starší sakrální stavby. Areál tvoří budova kostela a fary, která je ve stavebních konstrukcích dochována prakticky v původním stavu.",
        "url": "https://www.pamatkovykatalog.cz/1632084673",
        "sjtsk": [
          -865574.5,
          -1039886.45
        ],
        "lokalizace": "hlavní definiční bod",
        "chraneno": true,
        "faze_ochrany": "památkově chráněno",
        "rok_zapisu": 2007,
        "ruian_stavebni_objekt": null,
        "v_uzemich": [
          {
            "kod": "NZ",
            "nazev": "Nárazníková zóna statku světového dědictví \"Slavná lázeňská města Evropy\""
          }
        ],
        "unesco": false
      }
    },
    {
      "type": "Feature",
      "geometry": {
        "type": "Point",
        "coordinates": [
          12.7065613,
          49.9773647
        ]
      },
      "properties": {
        "zdroj": "NPÚ, Ústřední seznam kulturních památek ČR",
        "sada": "kulturní památky",
        "katalogove_cislo": "1000141139",
        "nazev": "lázeňská kolonáda",
        "kategorie": "areál",
        "ochrana": "kulturní památka",
        "rejstrik": "29745/4-57",
        "prstav_id": "141139",
        "aktstav_id": "10889136",
        "adresa": "Goethovo náměstí 625/33, Mariánské Lázně",
        "obec": "Mariánské Lázně",
        "cast_obce": "Mariánské Lázně",
        "katastralni_uzemi": "Mariánské Lázně",
        "okres": "Cheb",
        "kraj": "Karlovarský kraj",
        "anotace": "Lázeňská kolonáda byla postavena v letech 1888–1889 podle plánů proslavených vídeňských architektů Hanse Miksche a Juliana Niedzielského v novobarokním stylu. Unikátní nosná litinová konstrukce byla odlita v železárnách knížete Salma v Blansku.",
        "url": "https://www.pamatkovykatalog.cz/1000141139",
        "sjtsk": [
          -866111.0,
          -1036981.29
        ],
        "lokalizace": "hlavní definiční bod",
        "chraneno": true,
        "faze_ochrany": "památkově chráněno, rozsah revidován",
        "rok_zapisu": 1958,
        "ruian_stavebni_objekt": 24567647,
        "v_uzemich": [
          {
            "kod": "PR",
            "nazev": "Mariánské Lázně a Valy s lázeňskou kulturní krajinou"
          },
          {
            "kod": "PZ",
            "nazev": "Mariánské Lázně"
          },
          {
            "kod": "SD",
            "nazev": "Slavná lázeňská města Evropy"
          }
        ],
        "unesco": true
      }
    },
    {
      "type": "Feature",
      "geometry": {
        "type": "Point",
        "coordinates": [
          12.7016631,
          49.9710275
        ]
      },
      "properties": {
        "zdroj": "NPÚ, Ústřední seznam kulturních památek ČR",
        "sada": "kulturní památky",
        "katalogove_cislo": "1000118992",
        "nazev": "lázeňský dům",
        "kategorie": "areál",
        "ochrana": "kulturní památka",
        "rejstrik": "50625/4-5224",
        "prstav_id": "118992",
        "aktstav_id": "10917002",
        "adresa": "Ruská 123/11, Mariánské Lázně",
        "obec": "Mariánské Lázně",
        "cast_obce": "Mariánské Lázně",
        "katastralni_uzemi": "Mariánské Lázně",
        "okres": "Cheb",
        "kraj": "Karlovarský kraj",
        "anotace": "Areál se skládá z lázeňského domu, terasy a zahrady. Novorenesanční lázeňská budova vznikla v 2. pol. 20. stol. Má 4 NP, obdélný půdorys s jednoosými nárožními křídly. V celé délce 9osého hlavního průčelí probíhá otevřená arkádová chodba.",
        "url": "https://www.pamatkovykatalog.cz/1000118992",
        "sjtsk": [
          -866570.0,
          -1037621.25
        ],
        "lokalizace": "hlavní definiční bod",
        "chraneno": true,
        "faze_ochrany": "památkově chráněno",
        "rok_zapisu": 2001,
        "ruian_stavebni_objekt": 24566641,
        "v_uzemich": [
          {
            "kod": "PR",
            "nazev": "Mariánské Lázně a Valy s lázeňskou kulturní krajinou"
          },
          {
            "kod": "PZ",
            "nazev": "Mariánské Lázně"
          },
          {
            "kod": "SD",
            "nazev": "Slavná lázeňská města Evropy"
          }
        ],
        "unesco": true
      }
    },
    {
      "type": "Feature",
      "geometry": {
        "type": "Point",
        "coordinates": [
          12.7084094,
          49.9748273
        ]
      },
      "properties": {
        "zdroj": "NPÚ, Ústřední seznam kulturních památek ČR",
        "sada": "kulturní památky",
        "katalogove_cislo": "1260993283",
        "nazev": "lázeňský dům - Centrální lázně",
        "kategorie": "objekt",
        "ochrana": "kulturní památka",
        "rejstrik": "102064",
        "prstav_id": "260993283",
        "aktstav_id": "10927146",
        "adresa": "Goethovo náměstí 1/29, Mariánské Lázně",
        "obec": "Mariánské Lázně",
        "cast_obce": "Mariánské Lázně",
        "katastralni_uzemi": "Mariánské Lázně",
        "okres": "Cheb",
        "kraj": "Karlovarský kraj",
        "anotace": "Budova lázní vznikla přestavbou původních Starých lázní, která proběhla v letech 1889–1892 podle projektu arch. Josefa Schaffera. Představuje výraznou dominantu města. Jedná se o nejstarší dodnes fungující lázeňský dům v Mariánských Lázních.",
        "url": "https://www.pamatkovykatalog.cz/1260993283",
        "sjtsk": [
          -866025.01,
          -1037280.99
        ],
        "lokalizace": "hlavní definiční bod",
        "chraneno": true,
        "faze_ochrany": "památkově chráněno",
        "rok_zapisu": 2006,
        "ruian_stavebni_objekt": 24566128,
        "v_uzemich": [
          {
            "kod": "PR",
            "nazev": "Mariánské Lázně a Valy s lázeňskou kulturní krajinou"
          },
          {
            "kod": "PZ",
            "nazev": "Mariánské Lázně"
          },
          {
            "kod": "SD",
            "nazev": "Slavná lázeňská města Evropy"
          }
        ],
        "unesco": true
      }
    },
    {
      "type": "Feature",
      "geometry": {
        "type": "Point",
        "coordinates": [
          12.7021861,
          49.9771033
        ]
      },
      "properties": {
        "zdroj": "NPÚ, Ústřední seznam kulturních památek ČR",
        "sada": "kulturní památky",
        "katalogove_cislo": "1000132938",
        "nazev": "lázeňský dům Balmoral - Osborne",
        "kategorie": "areál",
        "ochrana": "kulturní památka",
        "rejstrik": "22013/4-4234",
        "prstav_id": "132938",
        "aktstav_id": "18100204",
        "adresa": "Hlavní třída 389/14, Mariánské Lázně",
        "obec": "Mariánské Lázně",
        "cast_obce": "Mariánské Lázně",
        "katastralni_uzemi": "Mariánské Lázně",
        "okres": "Cheb",
        "kraj": "Karlovarský kraj",
        "anotace": "Areál studentské koleje se skládá z domu Balmoral a domu Osborne. Jde o dva solitérní lázeňské domy z počátku 20. století, novodobě propojené vstupní halou. Fasády v eklektickém stylu jsou značně členité.",
        "url": "https://www.pamatkovykatalog.cz/1000132938",
        "sjtsk": [
          -866425.44,
          -1036960.06
        ],
        "lokalizace": "hlavní definiční bod",
        "chraneno": true,
        "faze_ochrany": "památkově chráněno",
        "rok_zapisu": 1958,
        "ruian_stavebni_objekt": 20687516,
        "v_uzemich": [
          {
            "kod": "PR",
            "nazev": "Mariánské Lázně a Valy s lázeňskou kulturní krajinou"
          },
          {
            "kod": "PZ",
            "nazev": "Mariánské Lázně"
          },
          {
            "kod": "SD",
            "nazev": "Slavná lázeňská města Evropy"
          }
        ],
        "unesco": true
      }
    },
    {
      "type": "Feature",
      "geometry": {
        "type": "Point",
        "coordinates": [
          12.7027545,
          49.9742106
        ]
      },
      "properties": {
        "zdroj": "NPÚ, Ústřední seznam kulturních památek ČR",
        "sada": "kulturní památky",
        "katalogove_cislo": "1000147167",
        "nazev": "lázeňský dům Bohemia",
        "kategorie": "objekt",
        "ochrana": "kulturní památka",
        "rejstrik": "35389/4-4117",
        "prstav_id": "147167",
        "aktstav_id": "18100112",
        "adresa": "Hlavní třída 100/40, Mariánské Lázně",
        "obec": "Mariánské Lázně",
        "cast_obce": "Mariánské Lázně",
        "katastralni_uzemi": "Mariánské Lázně",
        "okres": "Cheb",
        "kraj": "Karlovarský kraj",
        "anotace": "Solitérní třípatrový dům obdélného půdorysu postavený v roce 1895 dle projektu arch. Arnolda Heymanna sloužící jako hotel. Fasáda je opatřena bohatou štukovou výzdobou historizujícího tvarosloví, v každém podlaží rozdílně pojednanou.",
        "url": "https://www.pamatkovykatalog.cz/1000147167",
        "sjtsk": [
          -866436.38,
          -1037284.19
        ],
        "lokalizace": "hlavní definiční bod",
        "chraneno": true,
        "faze_ochrany": "památkově chráněno",
        "rok_zapisu": 1958,
        "ruian_stavebni_objekt": 24566560,
        "v_uzemich": [
          {
            "kod": "PR",
            "nazev": "Mariánské Lázně a Valy s lázeňskou kulturní krajinou"
          },
          {
            "kod": "PZ",
            "nazev": "Mariánské Lázně"
          },
          {
            "kod": "SD",
            "nazev": "Slavná lázeňská města Evropy"
          }
        ],
        "unesco": true
      }
    },
    {
      "type": "Feature",
      "geometry": {
        "type": "Point",
        "coordinates": [
          12.7030144,
          49.9753395
        ]
      },
      "properties": {
        "zdroj": "NPÚ, Ústřední seznam kulturních památek ČR",
        "sada": "kulturní památky",
        "katalogove_cislo": "1000135059",
        "nazev": "lázeňský dům Chopin",
        "kategorie": "areál",
        "ochrana": "kulturní památka",
        "rejstrik": "24021/4-60",
        "prstav_id": "135059",
        "aktstav_id": "18085106",
        "adresa": "Hlavní třída 47/28, Mariánské Lázně",
        "obec": "Mariánské Lázně",
        "cast_obce": "Mariánské Lázně",
        "katastralni_uzemi": "Mariánské Lázně",
        "okres": "Cheb",
        "kraj": "Karlovarský kraj",
        "anotace": "Areál se skládá z Chopinova domu, dvorních traktů na J a S straně a terasy. Chopinův dům je řadová 9osá stavba o 3 NP, střecha je sedlová. Střední osou prochází valeně klenutý průjezd. Dům pochází z roku 1820, fasáda upravena v historizujícím slohu.",
        "url": "https://www.pamatkovykatalog.cz/1000135059",
        "sjtsk": [
          -866398.0,
          -1037163.19
        ],
        "lokalizace": "hlavní definiční bod",
        "chraneno": true,
        "faze_ochrany": "památkově chráněno",
        "rok_zapisu": 1958,
        "ruian_stavebni_objekt": 20685211,
        "v_uzemich": [
          {
            "kod": "PR",
            "nazev": "Mariánské Lázně a Valy s lázeňskou kulturní krajinou"
          },
          {
            "kod": "PZ",
            "nazev": "Mariánské Lázně"
          },
          {
            "kod": "SD",
            "nazev": "Slavná lázeňská města Evropy"
          }
        ],
        "unesco": true
      }
    },
    {
      "type": "Feature",
      "geometry": {
        "type": "Point",
        "coordinates": [
          12.7051319,
          49.9723749
        ]
      },
      "properties": {
        "zdroj": "NPÚ, Ústřední seznam kulturních památek ČR",
        "sada": "kulturní památky",
        "katalogove_cislo": "1000138606",
        "nazev": "lázeňský dům Copelie",
        "kategorie": "objekt",
        "ochrana": "kulturní památka",
        "rejstrik": "27368/4-4251",
        "prstav_id": "138606",
        "aktstav_id": "18100221",
        "adresa": "Anglická 137/11, Mariánské Lázně",
        "obec": "Mariánské Lázně",
        "cast_obce": "Mariánské Lázně",
        "katastralni_uzemi": "Mariánské Lázně",
        "okres": "Cheb",
        "kraj": "Karlovarský kraj",
        "anotace": "Lázeňský dům Copelie nechal vystavět kolem roku 1875 majitel Adolf Fechter jako Coburg. Secesní řadový dům se zdobnou fasádou sloužil v 50. a 60. letech 20. století jako poliklinika Jáchymovských dolů.",
        "url": "https://www.pamatkovykatalog.cz/1000138606",
        "sjtsk": [
          -866300.5,
          -1037512.88
        ],
        "lokalizace": "hlavní definiční bod",
        "chraneno": true,
        "faze_ochrany": "památkově chráněno",
        "rok_zapisu": 1958,
        "ruian_stavebni_objekt": 20685653,
        "v_uzemich": [
          {
            "kod": "PR",
            "nazev": "Mariánské Lázně a Valy s lázeňskou kulturní krajinou"
          },
          {
            "kod": "SD",
            "nazev": "Slavná lázeňská města Evropy"
          }
        ],
        "unesco": true
      }
    },
    {
      "type": "Feature",
      "geometry": {
        "type": "Point",
        "coordinates": [
          12.7047865,
          49.9782649
        ]
      },
      "properties": {
        "zdroj": "NPÚ, Ústřední seznam kulturních památek ČR",
        "sada": "kulturní památky",
        "katalogove_cislo": "1000158766",
        "nazev": "lázeňský dům Gorkij",
        "kategorie": "objekt",
        "ochrana": "kulturní památka",
        "rejstrik": "46270/4-59",
        "prstav_id": "158766",
        "aktstav_id": "18085105",
        "adresa": "Nehrova 141/1, Mariánské Lázně",
        "obec": "Mariánské Lázně",
        "cast_obce": "Mariánské Lázně",
        "katastralni_uzemi": "Mariánské Lázně",
        "okres": "Cheb",
        "kraj": "Karlovarský kraj",
        "anotace": "Dům vystavěný ve 40. letech 19. století, s velmi tektonicky řešenou novorenesanční fasádou. Na domě se nachází pamětní deska od sochaře V. Davida z roku 1951, vztahující se k pobytu M. Gorkého v letech 1923 a 1924.",
        "url": "https://www.pamatkovykatalog.cz/1000158766",
        "sjtsk": [
          -866220.75,
          -1036862.19
        ],
        "lokalizace": "hlavní definiční bod",
        "chraneno": true,
        "faze_ochrany": "památkově chráněno",
        "rok_zapisu": 1958,
        "ruian_stavebni_objekt": 24566705,
        "v_uzemich": [
          {
            "kod": "PR",
            "nazev": "Mariánské Lázně a Valy s lázeňskou kulturní krajinou"
          },
          {
            "kod": "PZ",
            "nazev": "Mariánské Lázně"
          },
          {
            "kod": "SD",
            "nazev": "Slavná lázeňská města Evropy"
          }
        ],
        "unesco": true
      }
    },
    {
      "type": "Feature",
      "geometry": {
        "type": "Point",
        "coordinates": [
          12.7100736,
          49.9760348
        ]
      },
      "properties": {
        "zdroj": "NPÚ, Ústřední seznam kulturních památek ČR",
        "sada": "kulturní památky",
        "katalogove_cislo": "1000118991",
        "nazev": "lázeňský dům Hvězda",
        "kategorie": "objekt",
        "ochrana": "kulturní památka",
        "rejstrik": "50829/4-5238",
        "prstav_id": "118991",
        "aktstav_id": "10917019",
        "adresa": "Goethovo náměstí 7/21, Mariánské Lázně",
        "obec": "Mariánské Lázně",
        "cast_obce": "Mariánské Lázně",
        "katastralni_uzemi": "Mariánské Lázně",
        "okres": "Cheb",
        "kraj": "Karlovarský kraj",
        "anotace": "Solitérní budova vystavěná na počátku 19. století, v roce 1904 přestavěná ve stylu novobarokního eklekticismu, autorem je váděňský architekt Arnold Heymann.",
        "url": "https://www.pamatkovykatalog.cz/1000118991",
        "sjtsk": [
          -865885.81,
          -1037167.38
        ],
        "lokalizace": "hlavní definiční bod",
        "chraneno": true,
        "faze_ochrany": "památkově chráněno",
        "rok_zapisu": 2001,
        "ruian_stavebni_objekt": 24566152,
        "v_uzemich": [
          {
            "kod": "PR",
            "nazev": "Mariánské Lázně a Valy s lázeňskou kulturní krajinou"
          },
          {
            "kod": "PZ",
            "nazev": "Mariánské Lázně"
          },
          {
            "kod": "SD",
            "nazev": "Slavná lázeňská města Evropy"
          }
        ],
        "unesco": true
      }
    },
    {
      "type": "Feature",
      "geometry": {
        "type": "Point",
        "coordinates": [
          12.7061271,
          49.9781702
        ]
      },
      "properties": {
        "zdroj": "NPÚ, Ústřední seznam kulturních památek ČR",
        "sada": "kulturní památky",
        "katalogove_cislo": "1000130163",
        "nazev": "lázeňský dům Jirásek",
        "kategorie": "objekt",
        "ochrana": "kulturní památka",
        "rejstrik": "19401/4-4243",
        "prstav_id": "130163",
        "aktstav_id": "18100213",
        "adresa": "Masarykova 25/3, Mariánské Lázně",
        "obec": "Mariánské Lázně",
        "cast_obce": "Mariánské Lázně",
        "katastralni_uzemi": "Mariánské Lázně",
        "okres": "Cheb",
        "kraj": "Karlovarský kraj",
        "anotace": "Rohový řadový dům obdélného půdorysu s mansardovým patrem a neckovitou střechou zakončenou v čele 2 vížkami. Hlavní průčelí má 6 okenních os, boční 11. Průčelí členěno středovým dvouosým rizalitem, boční části balkony s keramickým zábradlím.",
        "url": "https://www.pamatkovykatalog.cz/1000130163",
        "sjtsk": [
          -866127.5,
          -1036887.88
        ],
        "lokalizace": "hlavní definiční bod",
        "chraneno": true,
        "faze_ochrany": "památkově chráněno",
        "rok_zapisu": 1958,
        "ruian_stavebni_objekt": 20685157,
        "v_uzemich": [
          {
            "kod": "PR",
            "nazev": "Mariánské Lázně a Valy s lázeňskou kulturní krajinou"
          },
          {
            "kod": "PZ",
            "nazev": "Mariánské Lázně"
          },
          {
            "kod": "SD",
            "nazev": "Slavná lázeňská města Evropy"
          }
        ],
        "unesco": true
      }
    },
    {
      "type": "Feature",
      "geometry": {
        "type": "Point",
        "coordinates": [
          12.7087495,
          49.9668052
        ]
      },
      "properties": {
        "zdroj": "NPÚ, Ústřední seznam kulturních památek ČR",
        "sada": "kulturní památky",
        "katalogove_cislo": "1000135265",
        "nazev": "lázeňský dům Miramonte",
        "kategorie": "objekt",
        "ochrana": "kulturní památka",
        "rejstrik": "24216/4-4244",
        "prstav_id": "135265",
        "aktstav_id": "18100214",
        "adresa": "Pod Panoramou 133/4, Úšovice, Mariánské Lázně",
        "obec": "Mariánské Lázně",
        "cast_obce": "Úšovice",
        "katastralni_uzemi": "Úšovice",
        "okres": "Cheb",
        "kraj": "Karlovarský kraj",
        "anotace": "Dvoupatrová budova se středním rizalitem zakončeným štítem pochází let 1904–1905. Jedná se o dílo vídeňského architekta Eduarda Prandla, jenž zde skloubil novobarokní sloh s rokokovými prvky. Budova původně sloužila jako hotel a kavárna.",
        "url": "https://www.pamatkovykatalog.cz/1000135265",
        "sjtsk": [
          -866142.81,
          -1038165.75
        ],
        "lokalizace": "hlavní definiční bod",
        "chraneno": true,
        "faze_ochrany": "památkově chráněno",
        "rok_zapisu": 1958,
        "ruian_stavebni_objekt": 20629851,
        "v_uzemich": [
          {
            "kod": "PR",
            "nazev": "Mariánské Lázně a Valy s lázeňskou kulturní krajinou"
          },
          {
            "kod": "PZ",
            "nazev": "Mariánské Lázně"
          },
          {
            "kod": "SD",
            "nazev": "Slavná lázeňská města Evropy"
          }
        ],
        "unesco": true
      }
    },
    {
      "type": "Feature",
      "geometry": {
        "type": "Point",
        "coordinates": [
          12.7056639,
          49.9745306
        ]
      },
      "properties": {
        "zdroj": "NPÚ, Ústřední seznam kulturních památek ČR",
        "sada": "kulturní památky",
        "katalogove_cislo": "1000139386",
        "nazev": "lázeňský dům Nové Lázně",
        "kategorie": "objekt",
        "ochrana": "kulturní památka",
        "rejstrik": "28105/4-4284",
        "prstav_id": "139386",
        "aktstav_id": "18100254",
        "adresa": "Reitenbergerova 53/2, Mariánské Lázně",
        "obec": "Mariánské Lázně",
        "cast_obce": "Mariánské Lázně",
        "katastralni_uzemi": "Mariánské Lázně",
        "okres": "Cheb",
        "kraj": "Karlovarský kraj",
        "anotace": "Lázeňský dům Nové Lázně byl postaven v letech 1893–1896 podle plánů architekta Josefa Schaffera. Jedná se o trojkřídlou historizující stavbu s řadou menších přístaveb ve dvorní části.",
        "url": "https://www.pamatkovykatalog.cz/1000139386",
        "sjtsk": [
          -866224.69,
          -1037282.25
        ],
        "lokalizace": "hlavní definiční bod",
        "chraneno": true,
        "faze_ochrany": "památkově chráněno",
        "rok_zapisu": 1958,
        "ruian_stavebni_objekt": 24566357,
        "v_uzemich": [
          {
            "kod": "PR",
            "nazev": "Mariánské Lázně a Valy s lázeňskou kulturní krajinou"
          },
          {
            "kod": "PZ",
            "nazev": "Mariánské Lázně"
          },
          {
            "kod": "SD",
            "nazev": "Slavná lázeňská města Evropy"
          }
        ],
        "unesco": true
      }
    },
    {
      "type": "Feature",
      "geometry": {
        "type": "Point",
        "coordinates": [
          12.7032344,
          49.9784183
        ]
      },
      "properties": {
        "zdroj": "NPÚ, Ústřední seznam kulturních památek ČR",
        "sada": "kulturní památky",
        "katalogove_cislo": "1000158361",
        "nazev": "lázeňský dům Pacifik",
        "kategorie": "objekt",
        "ochrana": "kulturní památka",
        "rejstrik": "45891/4-4232",
        "prstav_id": "158361",
        "aktstav_id": "18100202",
        "adresa": "Mírové náměstí 84/1, Mariánské Lázně",
        "obec": "Mariánské Lázně",
        "cast_obce": "Mariánské Lázně",
        "katastralni_uzemi": "Mariánské Lázně",
        "okres": "Cheb",
        "kraj": "Karlovarský kraj",
        "anotace": "Lázeňský dům Pacifik nechal v roce 1901 postavit hoteliér Kašpar Vít vídeňským architektem Arnoldem Heymannem v monumentálním novorenesančním stylu.",
        "url": "https://www.pamatkovykatalog.cz/1000158361",
        "sjtsk": [
          -866327.94,
          -1036827.63
        ],
        "lokalizace": "hlavní definiční bod",
        "chraneno": true,
        "faze_ochrany": "památkově chráněno",
        "rok_zapisu": 1958,
        "ruian_stavebni_objekt": 20685351,
        "v_uzemich": [
          {
            "kod": "PR",
            "nazev": "Mariánské Lázně a Valy s lázeňskou kulturní krajinou"
          },
          {
            "kod": "PZ",
            "nazev": "Mariánské Lázně"
          },
          {
            "kod": "SD",
            "nazev": "Slavná lázeňská města Evropy"
          }
        ],
        "unesco": true
      }
    },
    {
      "type": "Feature",
      "geometry": {
        "type": "Point",
        "coordinates": [
          12.7045656,
          49.9789864
        ]
      },
      "properties": {
        "zdroj": "NPÚ, Ústřední seznam kulturních památek ČR",
        "sada": "kulturní památky",
        "katalogove_cislo": "1000134424",
        "nazev": "lázeňský dům Palladio",
        "kategorie": "objekt",
        "ochrana": "kulturní památka",
        "rejstrik": "23423/4-4241",
        "prstav_id": "134424",
        "aktstav_id": "18100211",
        "adresa": "Chopinova 343/2, Mariánské Lázně",
        "obec": "Mariánské Lázně",
        "cast_obce": "Mariánské Lázně",
        "katastralni_uzemi": "Mariánské Lázně",
        "okres": "Cheb",
        "kraj": "Karlovarský kraj",
        "anotace": "Solitérní budova obdélného půdorysu. Hlavní průčelí členěno korintskými sloupy nesoucími architráv, který přechází v mohutnou kordonovou římsu oddělující poslední NP. Vystavěný majitelem, mariánskolázeňským arch. Josefem Schafferem v letech 1902-1903.",
        "url": "https://www.pamatkovykatalog.cz/1000134424",
        "sjtsk": [
          -866223.63,
          -1036780.44
        ],
        "lokalizace": "hlavní definiční bod",
        "chraneno": true,
        "faze_ochrany": "památkově chráněno",
        "rok_zapisu": 1958,
        "ruian_stavebni_objekt": 24567086,
        "v_uzemich": [
          {
            "kod": "PR",
            "nazev": "Mariánské Lázně a Valy s lázeňskou kulturní krajinou"
          },
          {
            "kod": "PZ",
            "nazev": "Mariánské Lázně"
          },
          {
            "kod": "SD",
            "nazev": "Slavná lázeňská města Evropy"
          }
        ],
        "unesco": true
      }
    },
    {
      "type": "Feature",
      "geometry": {
        "type": "Point",
        "coordinates": [
          12.7082821,
          49.9705992
        ]
      },
      "properties": {
        "zdroj": "NPÚ, Ústřední seznam kulturních památek ČR",
        "sada": "kulturní památky",
        "katalogove_cislo": "1000145913",
        "nazev": "lázeňský dům Panorama",
        "kategorie": "areál",
        "ochrana": "kulturní památka",
        "rejstrik": "34211/4-4257",
        "prstav_id": "145913",
        "aktstav_id": "18100227",
        "adresa": "Pod Panoramou 90/5, Úšovice, Mariánské Lázně",
        "obec": "Mariánské Lázně",
        "cast_obce": "Úšovice",
        "katastralni_uzemi": "Úšovice",
        "okres": "Cheb",
        "kraj": "Karlovarský kraj",
        "anotace": "Původně nevelkou kavárnu z roku 1872 nechal vystavět Engelbert Adolf Lucha. V roce 1892 ji nechal rozšířit o kavárenský sál stavitelem Aloisem Korbou z Mariánských Lázní. Areál Panoramy spoluutváří bazén se sousoším nymfy a satyra, terasa a oplocení.",
        "url": "https://www.pamatkovykatalog.cz/1000145913",
        "sjtsk": [
          -866108.81,
          -1037743.81
        ],
        "lokalizace": "hlavní definiční bod",
        "chraneno": true,
        "faze_ochrany": "památkově chráněno",
        "rok_zapisu": 1958,
        "ruian_stavebni_objekt": 24806927,
        "v_uzemich": [
          {
            "kod": "PR",
            "nazev": "Mariánské Lázně a Valy s lázeňskou kulturní krajinou"
          },
          {
            "kod": "PZ",
            "nazev": "Mariánské Lázně"
          },
          {
            "kod": "SD",
            "nazev": "Slavná lázeňská města Evropy"
          }
        ],
        "unesco": true
      }
    },
    {
      "type": "Feature",
      "geometry": {
        "type": "Point",
        "coordinates": [
          12.7048545,
          49.9679582
        ]
      },
      "properties": {
        "zdroj": "NPÚ, Ústřední seznam kulturních památek ČR",
        "sada": "kulturní památky",
        "katalogove_cislo": "1000124330",
        "nazev": "lázeňský dům Svatý Antoníček",
        "kategorie": "objekt",
        "ochrana": "kulturní památka",
        "rejstrik": "13998/4-4245",
        "prstav_id": "124330",
        "aktstav_id": "18100215",
        "adresa": "Anglická 472/6, Mariánské Lázně",
        "obec": "Mariánské Lázně",
        "cast_obce": "Mariánské Lázně",
        "katastralni_uzemi": "Mariánské Lázně",
        "okres": "Cheb",
        "kraj": "Karlovarský kraj",
        "anotace": "Vila Sankt Antonius byla postavena v letech 1925 až 1926 podle projektu architekta Aloise Kolba v duchu historismu jako samostatně stojící objekt sloužící jak pro bydlení, tak pro provozování činnosti jeho majitelky.",
        "url": "https://www.pamatkovykatalog.cz/1000124330",
        "sjtsk": [
          -866398.29,
          -1037994.7
        ],
        "lokalizace": "hlavní definiční bod",
        "chraneno": true,
        "faze_ochrany": "památkově chráněno",
        "rok_zapisu": 1958,
        "ruian_stavebni_objekt": 24567264,
        "v_uzemich": [
          {
            "kod": "PR",
            "nazev": "Mariánské Lázně a Valy s lázeňskou kulturní krajinou"
          },
          {
            "kod": "PZ",
            "nazev": "Mariánské Lázně"
          },
          {
            "kod": "SD",
            "nazev": "Slavná lázeňská města Evropy"
          }
        ],
        "unesco": true
      }
    },
    {
      "type": "Feature",
      "geometry": {
        "type": "Point",
        "coordinates": [
          12.7036945,
          49.9795408
        ]
      },
      "properties": {
        "zdroj": "NPÚ, Ústřední seznam kulturních památek ČR",
        "sada": "kulturní památky",
        "katalogove_cislo": "1000141264",
        "nazev": "lázeňský dům Svoboda",
        "kategorie": "objekt",
        "ochrana": "kulturní památka",
        "rejstrik": "29860/4-4239",
        "prstav_id": "141264",
        "aktstav_id": "18100209",
        "adresa": "Chopinova 393/6, Mariánské Lázně",
        "obec": "Mariánské Lázně",
        "cast_obce": "Mariánské Lázně",
        "katastralni_uzemi": "Mariánské Lázně",
        "okres": "Cheb",
        "kraj": "Karlovarský kraj",
        "anotace": "Lázeňský dům Svoboda, do 50. let 20. století Carlton, nechali vystavět manželé Vilém a Anna Zörkendörferovi v letech 1905–1906 stavitelem Josefem Forberichem v eklektickém slohu.",
        "url": "https://www.pamatkovykatalog.cz/1000141264",
        "sjtsk": [
          -866275.5,
          -1036709.63
        ],
        "lokalizace": "hlavní definiční bod",
        "chraneno": true,
        "faze_ochrany": "památkově chráněno",
        "rok_zapisu": 1958,
        "ruian_stavebni_objekt": 24567183,
        "v_uzemich": [
          {
            "kod": "PR",
            "nazev": "Mariánské Lázně a Valy s lázeňskou kulturní krajinou"
          },
          {
            "kod": "PZ",
            "nazev": "Mariánské Lázně"
          },
          {
            "kod": "SD",
            "nazev": "Slavná lázeňská města Evropy"
          }
        ],
        "unesco": true
      }
    },
    {
      "type": "Feature",
      "geometry": {
        "type": "Point",
        "coordinates": [
          12.7009389,
          49.9786892
        ]
      },
      "properties": {
        "zdroj": "NPÚ, Ústřední seznam kulturních památek ČR",
        "sada": "kulturní památky",
        "katalogove_cislo": "1000127769",
        "nazev": "lázeňský dům Třebízský",
        "kategorie": "areál",
        "ochrana": "kulturní památka",
        "rejstrik": "17156/4-61",
        "prstav_id": "127769",
        "aktstav_id": "18085107",
        "adresa": "Třebízského 118/9, Mariánské Lázně",
        "obec": "Mariánské Lázně",
        "cast_obce": "Mariánské Lázně",
        "katastralni_uzemi": "Mariánské Lázně",
        "okres": "Cheb",
        "kraj": "Karlovarský kraj",
        "anotace": "Lázeňský dům Třebízský byl postaven v roce 1873. Jedná se o samostatně stojící, zděný, nepodsklepený bytový dům. Objekt tvoří dvě hmoty (hlavní a dvorní trakt). Přední část domu je obdélného půdorysu o dvou patrech s valbovou střechou.",
        "url": "https://www.pamatkovykatalog.cz/1000127769",
        "sjtsk": [
          -866485.69,
          -1036771.69
        ],
        "lokalizace": "hlavní definiční bod",
        "chraneno": true,
        "faze_ochrany": "památkově chráněno",
        "rok_zapisu": 1958,
        "ruian_stavebni_objekt": 24566624,
        "v_uzemich": [
          {
            "kod": "PR",
            "nazev": "Mariánské Lázně a Valy s lázeňskou kulturní krajinou"
          },
          {
            "kod": "PZ",
            "nazev": "Mariánské Lázně"
          },
          {
            "kod": "SD",
            "nazev": "Slavná lázeňská města Evropy"
          }
        ],
        "unesco": true
      }
    },
    {
      "type": "Feature",
      "geometry": {
        "type": "Point",
        "coordinates": [
          12.7040814,
          49.9699669
        ]
      },
      "properties": {
        "zdroj": "NPÚ, Ústřední seznam kulturních památek ČR",
        "sada": "kulturní památky",
        "katalogove_cislo": "1000138873",
        "nazev": "lázeňský dům Vila Lil",
        "kategorie": "objekt",
        "ochrana": "kulturní památka",
        "rejstrik": "27617/4-4247",
        "prstav_id": "138873",
        "aktstav_id": "18100217",
        "adresa": "Anglická 336/2, Mariánské Lázně",
        "obec": "Mariánské Lázně",
        "cast_obce": "Mariánské Lázně",
        "katastralni_uzemi": "Mariánské Lázně",
        "okres": "Cheb",
        "kraj": "Karlovarský kraj",
        "anotace": "Vila LIL (Look In Land) je vskutku honosnou stavbou města s vysokou vyhlídkovou věží na jižním průčelí. Na hladké fasádě je kontrastní dekorativní hrázdění. Situovaná je v příkrém svahu nad údolím Úšovického potoka.",
        "url": "https://www.pamatkovykatalog.cz/1000138873",
        "sjtsk": [
          -866417.5,
          -1037765.31
        ],
        "lokalizace": "hlavní definiční bod",
        "chraneno": true,
        "faze_ochrany": "památkově chráněno",
        "rok_zapisu": 1958,
        "ruian_stavebni_objekt": 24567051,
        "v_uzemich": [
          {
            "kod": "PR",
            "nazev": "Mariánské Lázně a Valy s lázeňskou kulturní krajinou"
          },
          {
            "kod": "PZ",
            "nazev": "Mariánské Lázně"
          },
          {
            "kod": "SD",
            "nazev": "Slavná lázeňská města Evropy"
          }
        ],
        "unesco": true
      }
    },
    {
      "type": "Feature",
      "geometry": {
        "type": "Point",
        "coordinates": [
          12.7092184,
          49.9766279
        ]
      },
      "properties": {
        "zdroj": "NPÚ, Ústřední seznam kulturních památek ČR",
        "sada": "kulturní památky",
        "katalogove_cislo": "1000137150",
        "nazev": "lázeňský dům Weimar/Kavkaz",
        "kategorie": "objekt",
        "ochrana": "kulturní památka",
        "rejstrik": "26002/4-4231",
        "prstav_id": "137150",
        "aktstav_id": "18100201",
        "adresa": "Goethovo náměstí 9/15, Mariánské Lázně",
        "obec": "Mariánské Lázně",
        "cast_obce": "Mariánské Lázně",
        "katastralni_uzemi": "Mariánské Lázně",
        "okres": "Cheb",
        "kraj": "Karlovarský kraj",
        "anotace": "Lázeňský hotel pocházející z 20. let 19. století. Původně se jednalo o Klebelsberský palác vystavěný hrabětem Franzem Josefem Klebelsbergem. V l. 1903–1908 proběhla zásadní přestavba dle plánů arch. Arnolda Heymanna. Objekt je dominantou Goethova nám.",
        "url": "https://www.pamatkovykatalog.cz/1000137150",
        "sjtsk": [
          -865935.88,
          -1037092.5
        ],
        "lokalizace": "hlavní definiční bod",
        "chraneno": true,
        "faze_ochrany": "památkově chráněno, rozsah revidován",
        "rok_zapisu": 1958,
        "ruian_stavebni_objekt": 24566161,
        "v_uzemich": [
          {
            "kod": "PR",
            "nazev": "Mariánské Lázně a Valy s lázeňskou kulturní krajinou"
          },
          {
            "kod": "PZ",
            "nazev": "Mariánské Lázně"
          },
          {
            "kod": "SD",
            "nazev": "Slavná lázeňská města Evropy"
          }
        ],
        "unesco": true
      }
    },
    {
      "type": "Feature",
      "geometry": {
        "type": "Point",
        "coordinates": [
          12.7014482,
          49.9787495
        ]
      },
      "properties": {
        "zdroj": "NPÚ, Ústřední seznam kulturních památek ČR",
        "sada": "kulturní památky",
        "katalogove_cislo": "1000144653",
        "nazev": "lázeňský dům Westend",
        "kategorie": "objekt",
        "ochrana": "kulturní památka",
        "rejstrik": "33033/4-4235",
        "prstav_id": "144653",
        "aktstav_id": "18100205",
        "adresa": "Třebízského 342/8, Mariánské Lázně",
        "obec": "Mariánské Lázně",
        "cast_obce": "Mariánské Lázně",
        "katastralni_uzemi": "Mariánské Lázně",
        "okres": "Cheb",
        "kraj": "Karlovarský kraj",
        "anotace": "Třípatrový lázeňský dům s bočními rizality se nachází v zástavbě ulice Třebízského, do které směřuje průčelím o 7 osách. Původně tříkřídlý objekt ze 40. let 19. století byl roku 2001 rozšířen o čtvrté křídlo.",
        "url": "https://www.pamatkovykatalog.cz/1000144653",
        "sjtsk": [
          -866448.56,
          -1036770.88
        ],
        "lokalizace": "hlavní definiční bod",
        "chraneno": true,
        "faze_ochrany": "památkově chráněno",
        "rok_zapisu": 1958,
        "ruian_stavebni_objekt": 24567078,
        "v_uzemich": [
          {
            "kod": "PR",
            "nazev": "Mariánské Lázně a Valy s lázeňskou kulturní krajinou"
          },
          {
            "kod": "PZ",
            "nazev": "Mariánské Lázně"
          },
          {
            "kod": "SD",
            "nazev": "Slavná lázeňská města Evropy"
          }
        ],
        "unesco": true
      }
    },
    {
      "type": "Feature",
      "geometry": {
        "type": "Point",
        "coordinates": [
          12.7089076,
          49.9768511
        ]
      },
      "properties": {
        "zdroj": "NPÚ, Ústřední seznam kulturních památek ČR",
        "sada": "kulturní památky",
        "katalogove_cislo": "1000159194",
        "nazev": "lázeňský dům Zelený kříž/Split",
        "kategorie": "objekt",
        "ochrana": "kulturní památka",
        "rejstrik": "46674/4-56",
        "prstav_id": "159194",
        "aktstav_id": "18085104",
        "adresa": "Goethovo náměstí 10/13, Mariánské Lázně",
        "obec": "Mariánské Lázně",
        "cast_obce": "Mariánské Lázně",
        "katastralni_uzemi": "Mariánské Lázně",
        "okres": "Cheb",
        "kraj": "Karlovarský kraj",
        "anotace": "Bývalý lázeňský dům Split pocházející z dvacátých let 19. století. Objekt má unikátně zachovalou původní dispozici klasicistního domu včetně konstrukcí a umělecko-řemeslných prvků. Jedná se o jeden z nejstarších domů v Mariánských Lázní.",
        "url": "https://www.pamatkovykatalog.cz/1000159194",
        "sjtsk": [
          -865953.94,
          -1037064.44
        ],
        "lokalizace": "hlavní definiční bod",
        "chraneno": true,
        "faze_ochrany": "památkově chráněno, rozsah revidován",
        "rok_zapisu": 1958,
        "ruian_stavebni_objekt": 24566179,
        "v_uzemich": [
          {
            "kod": "PR",
            "nazev": "Mariánské Lázně a Valy s lázeňskou kulturní krajinou"
          },
          {
            "kod": "PZ",
            "nazev": "Mariánské Lázně"
          },
          {
            "kod": "SD",
            "nazev": "Slavná lázeňská města Evropy"
          }
        ],
        "unesco": true
      }
    },
    {
      "type": "Feature",
      "geometry": {
        "type": "Point",
        "coordinates": [
          12.7085299,
          49.9769923
        ]
      },
      "properties": {
        "zdroj": "NPÚ, Ústřední seznam kulturních památek ČR",
        "sada": "kulturní památky",
        "katalogove_cislo": "1000144828",
        "nazev": "lázeňský dům Zlatý hrozen",
        "kategorie": "objekt",
        "ochrana": "kulturní památka",
        "rejstrik": "33197/4-55",
        "prstav_id": "144828",
        "aktstav_id": "19256062",
        "adresa": "Goethovo náměstí 11/11, Mariánské Lázně",
        "obec": "Mariánské Lázně",
        "cast_obce": "Mariánské Lázně",
        "katastralni_uzemi": "Mariánské Lázně",
        "okres": "Cheb",
        "kraj": "Karlovarský kraj",
        "anotace": "Dům zvaný původně u Zlatého hroznu byl postaven před rokem 1818 a tvoří součást původní zástavby města. Dvorní křídlo bylo přestavěno ve 2. polovině 19. století. Objekt byl nevhodně upravován v letech 1975–1979, 1994 a 1998.",
        "url": "https://www.pamatkovykatalog.cz/1000144828",
        "sjtsk": [
          -865978.19,
          -1037044.63
        ],
        "lokalizace": "hlavní definiční bod",
        "chraneno": true,
        "faze_ochrany": "památkově chráněno, rozsah revidován",
        "rok_zapisu": 1958,
        "ruian_stavebni_objekt": 20685092,
        "v_uzemich": [
          {
            "kod": "PR",
            "nazev": "Mariánské Lázně a Valy s lázeňskou kulturní krajinou"
          },
          {
            "kod": "PZ",
            "nazev": "Mariánské Lázně"
          },
          {
            "kod": "SD",
            "nazev": "Slavná lázeňská města Evropy"
          }
        ],
        "unesco": true
      }
    },
    {
      "type": "Feature",
      "geometry": {
        "type": "Point",
        "coordinates": [
          12.7002038,
          49.9803651
        ]
      },
      "properties": {
        "zdroj": "NPÚ, Ústřední seznam kulturních památek ČR",
        "sada": "kulturní památky",
        "katalogove_cislo": "1000130103",
        "nazev": "lázeňský pavilón Lesního pramene",
        "kategorie": "objekt",
        "ochrana": "kulturní památka",
        "rejstrik": "19345/4-4236",
        "prstav_id": "130103",
        "aktstav_id": "18100206",
        "adresa": null,
        "obec": "Mariánské Lázně",
        "cast_obce": "Mariánské Lázně",
        "katastralni_uzemi": "Mariánské Lázně",
        "okres": "Cheb",
        "kraj": "Karlovarský kraj",
        "anotace": "Pavilon Lesního pramene z roku 1869 postavený podle plánů arch. Friedricha Zicklera v klasicizujícím stylu stojí na místě staršího dřevěného a mladšího kruhového pavilonu. V letech 1956–1957 byl při opravách zasklen.",
        "url": "https://www.pamatkovykatalog.cz/1000130103",
        "sjtsk": [
          -866508.08,
          -1036579.28
        ],
        "lokalizace": "hlavní definiční bod",
        "chraneno": true,
        "faze_ochrany": "památkově chráněno",
        "rok_zapisu": 1958,
        "ruian_stavebni_objekt": null,
        "v_uzemich": [
          {
            "kod": "PR",
            "nazev": "Mariánské Lázně a Valy s lázeňskou kulturní krajinou"
          },
          {
            "kod": "PZ",
            "nazev": "Mariánské Lázně"
          },
          {
            "kod": "SD",
            "nazev": "Slavná lázeňská města Evropy"
          }
        ],
        "unesco": true
      }
    },
    {
      "type": "Feature",
      "geometry": {
        "type": "Point",
        "coordinates": [
          12.7093235,
          49.959598
        ]
      },
      "properties": {
        "zdroj": "NPÚ, Ústřední seznam kulturních památek ČR",
        "sada": "kulturní památky",
        "katalogove_cislo": "1000133400",
        "nazev": "lázeňský pavilón Rudolfova pramene",
        "kategorie": "areál",
        "ochrana": "kulturní památka",
        "rejstrik": "22455/4-4250",
        "prstav_id": "133400",
        "aktstav_id": "18100220",
        "adresa": null,
        "obec": "Mariánské Lázně",
        "cast_obce": "Mariánské Lázně",
        "katastralni_uzemi": "Mariánské Lázně",
        "okres": "Cheb",
        "kraj": "Karlovarský kraj",
        "anotace": "Areál se skládá z pavilonu Rudolfova pramene a budovy provozního účelu. Pavilon je romantická dřevěná prosklená stavba z roku 1902, krytá sedlovou střechou.",
        "url": "https://www.pamatkovykatalog.cz/1000133400",
        "sjtsk": [
          -866229.62,
          -1038963.69
        ],
        "lokalizace": "hlavní definiční bod",
        "chraneno": true,
        "faze_ochrany": "památkově chráněno",
        "rok_zapisu": 1958,
        "ruian_stavebni_objekt": null,
        "v_uzemich": [
          {
            "kod": "PR",
            "nazev": "Mariánské Lázně a Valy s lázeňskou kulturní krajinou"
          },
          {
            "kod": "PZ",
            "nazev": "Mariánské Lázně"
          },
          {
            "kod": "SD",
            "nazev": "Slavná lázeňská města Evropy"
          }
        ],
        "unesco": true
      }
    },
    {
      "type": "Feature",
      "geometry": {
        "type": "Point",
        "coordinates": [
          12.7044317,
          49.9685222
        ]
      },
      "properties": {
        "zdroj": "NPÚ, Ústřední seznam kulturních památek ČR",
        "sada": "kulturní památky",
        "katalogove_cislo": "1000137568",
        "nazev": "měšťanský dům Dům pionýrů",
        "kategorie": "objekt",
        "ochrana": "kulturní památka",
        "rejstrik": "26395/4-4242",
        "prstav_id": "137568",
        "aktstav_id": "18100212",
        "adresa": "Anglická 358/4, Mariánské Lázně",
        "obec": "Mariánské Lázně",
        "cast_obce": "Mariánské Lázně",
        "katastralni_uzemi": "Mariánské Lázně",
        "okres": "Cheb",
        "kraj": "Karlovarský kraj",
        "anotace": "Dvoupatrová budova obdélného půdorysu s hrázděnou nástavbou s obytným podkrovím, krytá valbovou střechou. Hlavní průčelí má dva štíty kryté polovalbovou střechou, levý s balkónem, pravý s trojdílným oknem. Dvorní průčelí je otevřeno terasou a balkóny.",
        "url": "https://www.pamatkovykatalog.cz/1000137568",
        "sjtsk": [
          -866418.25,
          -1037927.94
        ],
        "lokalizace": "hlavní definiční bod",
        "chraneno": true,
        "faze_ochrany": "památkově chráněno",
        "rok_zapisu": 1958,
        "ruian_stavebni_objekt": 20687249,
        "v_uzemich": [
          {
            "kod": "PR",
            "nazev": "Mariánské Lázně a Valy s lázeňskou kulturní krajinou"
          },
          {
            "kod": "PZ",
            "nazev": "Mariánské Lázně"
          },
          {
            "kod": "SD",
            "nazev": "Slavná lázeňská města Evropy"
          }
        ],
        "unesco": true
      }
    },
    {
      "type": "Feature",
      "geometry": {
        "type": "Point",
        "coordinates": [
          12.6785042,
          50.0347041
        ]
      },
      "properties": {
        "zdroj": "NPÚ, Ústřední seznam kulturních památek ČR",
        "sada": "kulturní památky",
        "katalogove_cislo": "1000121655",
        "nazev": "plavební kanál Dlouhá stoka",
        "kategorie": "areál",
        "ochrana": "kulturní památka",
        "rejstrik": "100490",
        "prstav_id": "121655",
        "aktstav_id": "10918245",
        "adresa": null,
        "obec": "Krásno; Mariánské Lázně; Nová Ves; Prameny",
        "cast_obce": "Kladská; Krásno; Nová Ves; Prameny",
        "katastralni_uzemi": "Krásno nad Teplou; Mariánské Lázně; Nová Ves u Sokolova; Prameny",
        "okres": "Cheb; Sokolov",
        "kraj": "Karlovarský kraj",
        "anotace": "Umělý vodní kanál původně nazývaný Flößgraben, čili Plavební kanál, sloužil k přivádění vody báňským provozům a k plavení báňského dřeva. Výstavba počala roku 1531 a dokončena byla 1536 dle návrhu slavkovského měřiče Hanse Roßmeisla.",
        "url": "https://www.pamatkovykatalog.cz/1000121655",
        "sjtsk": [
          -867081.0,
          -1030365.0
        ],
        "lokalizace": "hlavní definiční bod",
        "chraneno": true,
        "faze_ochrany": "památkově chráněno",
        "rok_zapisu": 2003,
        "ruian_stavebni_objekt": null,
        "v_uzemich": [
          {
            "kod": "PZ",
            "nazev": "Kladská"
          }
        ],
        "unesco": false
      }
    },
    {
      "type": "Feature",
      "geometry": {
        "type": "Point",
        "coordinates": [
          12.7016189,
          49.9722746
        ]
      },
      "properties": {
        "zdroj": "NPÚ, Ústřední seznam kulturních památek ČR",
        "sada": "kulturní památky",
        "katalogove_cislo": "1000137374",
        "nazev": "pravoslavný kostel sv. Vladimíra",
        "kategorie": "objekt",
        "ochrana": "kulturní památka",
        "rejstrik": "26211/4-54",
        "prstav_id": "137374",
        "aktstav_id": "18242434",
        "adresa": "Ruská 347/9, Mariánské Lázně",
        "obec": "Mariánské Lázně",
        "cast_obce": "Mariánské Lázně",
        "katastralni_uzemi": "Mariánské Lázně",
        "okres": "Cheb",
        "kraj": "Karlovarský kraj",
        "anotace": "Pravoslavný kostel vystavěný v letech 1900–1901 Gustavem Wiedermannem z Františkových Lázní podle návrhu člena petrohradské akademie umění Nikolaje V. Sultanova v typickém rusko-byzantském slohu.",
        "url": "https://www.pamatkovykatalog.cz/1000137374",
        "sjtsk": [
          -866551.06,
          -1037483.81
        ],
        "lokalizace": "hlavní definiční bod",
        "chraneno": true,
        "faze_ochrany": "památkově chráněno",
        "rok_zapisu": 1958,
        "ruian_stavebni_objekt": 24567108,
        "v_uzemich": [
          {
            "kod": "PR",
            "nazev": "Mariánské Lázně a Valy s lázeňskou kulturní krajinou"
          },
          {
            "kod": "PZ",
            "nazev": "Mariánské Lázně"
          },
          {
            "kod": "SD",
            "nazev": "Slavná lázeňská města Evropy"
          }
        ],
        "unesco": true
      }
    },
    {
      "type": "Feature",
      "geometry": {
        "type": "Point",
        "coordinates": [
          12.7068864,
          49.9746325
        ]
      },
      "properties": {
        "zdroj": "NPÚ, Ústřední seznam kulturních památek ČR",
        "sada": "kulturní památky",
        "katalogove_cislo": "1000124639",
        "nazev": "společenský dům - spolkový dům Casino",
        "kategorie": "objekt",
        "ochrana": "kulturní památka",
        "rejstrik": "14294/4-4230",
        "prstav_id": "124639",
        "aktstav_id": "18100200",
        "adresa": "Reitenbergerova 95/4, Mariánské Lázně",
        "obec": "Mariánské Lázně",
        "cast_obce": "Mariánské Lázně",
        "katastralni_uzemi": "Mariánské Lázně",
        "okres": "Cheb",
        "kraj": "Karlovarský kraj",
        "anotace": "Původní budovu Starých lázní nechal vybudovat opat Pfrogner v roce 1808. Do dnešní podoby byl společenský dům přestavěn v letech 1889–1892 podle projektu arch. Josefa Schaffera. Architektonicky je objekt pojednán ve stylu neorenesance.",
        "url": "https://www.pamatkovykatalog.cz/1000124639",
        "sjtsk": [
          -866136.31,
          -1037285.0
        ],
        "lokalizace": "hlavní definiční bod",
        "chraneno": true,
        "faze_ochrany": "památkově chráněno",
        "rok_zapisu": 1958,
        "ruian_stavebni_objekt": 24566535,
        "v_uzemich": [
          {
            "kod": "PR",
            "nazev": "Mariánské Lázně a Valy s lázeňskou kulturní krajinou"
          },
          {
            "kod": "PZ",
            "nazev": "Mariánské Lázně"
          },
          {
            "kod": "SD",
            "nazev": "Slavná lázeňská města Evropy"
          }
        ],
        "unesco": true
      }
    },
    {
      "type": "Feature",
      "geometry": {
        "type": "Point",
        "coordinates": [
          12.7067833,
          49.9740879
        ]
      },
      "properties": {
        "zdroj": "NPÚ, Ústřední seznam kulturních památek ČR",
        "sada": "kulturní památky",
        "katalogove_cislo": "1855803756",
        "nazev": "tržnice",
        "kategorie": "objekt",
        "ochrana": "kulturní památka",
        "rejstrik": "103339",
        "prstav_id": "855803756",
        "aktstav_id": "10928859",
        "adresa": "Dusíkova 328/6, Mariánské Lázně",
        "obec": "Mariánské Lázně",
        "cast_obce": "Mariánské Lázně",
        "katastralni_uzemi": "Mariánské Lázně",
        "okres": "Cheb",
        "kraj": "Karlovarský kraj",
        "anotace": "Objekt byl projektován architektem Josefem Schafferem a postaven stavitelem Johanem Königem v letech 1898–1899 na místě bývalého otevřeného tržiště. Úprava fasád  je pojednána v pozdně historizujícím slohu s dominujícími neorenesančními motivy.",
        "url": "https://www.pamatkovykatalog.cz/1855803756",
        "sjtsk": [
          -866153.25,
          -1037343.63
        ],
        "lokalizace": "hlavní definiční bod",
        "chraneno": true,
        "faze_ochrany": "památkově chráněno",
        "rok_zapisu": 2008,
        "ruian_stavebni_objekt": 24567035,
        "v_uzemich": [
          {
            "kod": "PR",
            "nazev": "Mariánské Lázně a Valy s lázeňskou kulturní krajinou"
          },
          {
            "kod": "SD",
            "nazev": "Slavná lázeňská města Evropy"
          }
        ],
        "unesco": true
      }
    },
    {
      "type": "Feature",
      "geometry": {
        "type": "Point",
        "coordinates": [
          12.7143948,
          50.0223238
        ]
      },
      "properties": {
        "zdroj": "NPÚ, Ústřední seznam kulturních památek ČR",
        "sada": "kulturní památky",
        "katalogove_cislo": "1000137899",
        "nazev": "tvrz - tvrziště Kaiserruhe, archeologické stopy",
        "kategorie": "objekt",
        "ochrana": "kulturní památka",
        "rejstrik": "26705/4-4283",
        "prstav_id": "137899",
        "aktstav_id": "18100253",
        "adresa": null,
        "obec": "Mariánské Lázně",
        "cast_obce": "Mariánské Lázně",
        "katastralni_uzemi": "Mariánské Lázně",
        "okres": "Cheb",
        "kraj": "Karlovarský kraj",
        "anotace": "Tvrziště kruhového půdorysu o průměru cca 12–14 m s obvodovým příkopem a vnějším valem. Archeologicky nalezeny zbytky dřevěné stavby. Existence objektu spadá do konce 13. až počátku 14. století.",
        "url": "https://www.pamatkovykatalog.cz/1000137899",
        "sjtsk": [
          -864761.48,
          -1032133.76
        ],
        "lokalizace": "hlavní definiční bod",
        "chraneno": true,
        "faze_ochrany": "památkově chráněno",
        "rok_zapisu": 1958,
        "ruian_stavebni_objekt": null,
        "v_uzemich": [
          {
            "kod": "NZ",
            "nazev": "Nárazníková zóna statku světového dědictví \"Slavná lázeňská města Evropy\""
          },
          {
            "kod": "PZ",
            "nazev": "Kladská"
          }
        ],
        "unesco": false
      }
    },
    {
      "type": "Feature",
      "geometry": {
        "type": "Point",
        "coordinates": [
          12.7336835,
          49.9306426
        ]
      },
      "properties": {
        "zdroj": "NPÚ, Ústřední seznam kulturních památek ČR",
        "sada": "kulturní památky",
        "katalogove_cislo": "1000119708",
        "nazev": "venkovská usedlost",
        "kategorie": "objekt",
        "ochrana": "kulturní památka",
        "rejstrik": "12434/4-4962",
        "prstav_id": "119708",
        "aktstav_id": "10894302",
        "adresa": null,
        "obec": "Mariánské Lázně",
        "cast_obce": "Chotěnov-Skláře",
        "katastralni_uzemi": "Chotěnov u Mariánských Lázní",
        "okres": "Cheb",
        "kraj": "Karlovarský kraj",
        "anotace": "Roubená venkovská usedlost pocházející z druhé poloviny 18. století.",
        "url": "https://www.pamatkovykatalog.cz/1000119708",
        "sjtsk": [
          -865015.0,
          -1042421.0
        ],
        "lokalizace": "hlavní definiční bod",
        "chraneno": true,
        "faze_ochrany": "památkově chráněno",
        "rok_zapisu": 1994,
        "ruian_stavebni_objekt": null,
        "v_uzemich": [],
        "unesco": false
      }
    },
    {
      "type": "Feature",
      "geometry": {
        "type": "Point",
        "coordinates": [
          12.6881434,
          49.9542931
        ]
      },
      "properties": {
        "zdroj": "NPÚ, Ústřední seznam kulturních památek ČR",
        "sada": "kulturní památky",
        "katalogove_cislo": "1000137001",
        "nazev": "zámek Hammerhof (s hospodářským dvorem)",
        "kategorie": "areál",
        "ochrana": "kulturní památka",
        "rejstrik": "25863/4-62",
        "prstav_id": "137001",
        "aktstav_id": "18085108",
        "adresa": "třída Vítězství 1/2, Hamrníky, Mariánské Lázně",
        "obec": "Mariánské Lázně",
        "cast_obce": "Hamrníky",
        "katastralni_uzemi": "Úšovice",
        "okres": "Cheb",
        "kraj": "Karlovarský kraj",
        "anotace": "Areál barokního hospodářského dvora s jednopatrovou trojkřídlou zámeckou budovou, dvěma chlévy, stodolou, hospodářskou budovou a parkem. Obnovovací práce v letech 1706-1708 vedl stavitel Kryštof Dientzenhofer a polír Wolfgang Braunbock.",
        "url": "https://www.pamatkovykatalog.cz/1000137001",
        "sjtsk": [
          -867823.94,
          -1039304.31
        ],
        "lokalizace": "hlavní definiční bod",
        "chraneno": true,
        "faze_ochrany": "památkově chráněno",
        "rok_zapisu": 1958,
        "ruian_stavebni_objekt": 24565806,
        "v_uzemich": [
          {
            "kod": "NZ",
            "nazev": "Nárazníková zóna statku světového dědictví \"Slavná lázeňská města Evropy\""
          }
        ],
        "unesco": false
      }
    },
    {
      "type": "Feature",
      "geometry": {
        "type": "Point",
        "coordinates": [
          12.7065613,
          49.9773647
        ]
      },
      "properties": {
        "zdroj": "NPÚ, Ústřední seznam kulturních památek ČR",
        "sada": "národní kulturní památky",
        "katalogove_cislo": "1000141139",
        "nazev": "lázeňská kolonáda",
        "kategorie": "areál",
        "ochrana": "národní kulturní památka",
        "rejstrik": "347",
        "prstav_id": "430678201",
        "aktstav_id": "523613",
        "adresa": "Goethovo náměstí 625/33, Mariánské Lázně",
        "obec": "Mariánské Lázně",
        "cast_obce": "Mariánské Lázně",
        "katastralni_uzemi": "Mariánské Lázně",
        "okres": "Cheb",
        "kraj": "Karlovarský kraj",
        "anotace": "Lázeňská kolonáda byla postavena v letech 1888–1889 podle plánů proslavených vídeňských architektů Hanse Miksche a Juliana Niedzielského v novobarokním stylu. Unikátní nosná litinová konstrukce byla odlita v železárnách knížete Salma v Blansku.",
        "url": "https://www.pamatkovykatalog.cz/1000141139",
        "sjtsk": [
          -866111.0,
          -1036981.29
        ],
        "lokalizace": "hlavní definiční bod",
        "chraneno": true,
        "faze_ochrany": "památkově chráněno",
        "rok_zapisu": 2010,
        "ruian_stavebni_objekt": 24567647,
        "v_uzemich": [
          {
            "kod": "PR",
            "nazev": "Mariánské Lázně a Valy s lázeňskou kulturní krajinou"
          },
          {
            "kod": "PZ",
            "nazev": "Mariánské Lázně"
          },
          {
            "kod": "SD",
            "nazev": "Slavná lázeňská města Evropy"
          }
        ],
        "unesco": true
      }
    },
    {
      "type": "Feature",
      "geometry": {
        "type": "Point",
        "coordinates": [
          12.6785042,
          50.0347041
        ]
      },
      "properties": {
        "zdroj": "NPÚ, Ústřední seznam kulturních památek ČR",
        "sada": "národní kulturní památky",
        "katalogove_cislo": "1000121655",
        "nazev": "plavební kanál Dlouhá stoka",
        "kategorie": "areál",
        "ochrana": "národní kulturní památka",
        "rejstrik": "383",
        "prstav_id": "140076533",
        "aktstav_id": "523648",
        "adresa": null,
        "obec": "Krásno; Mariánské Lázně; Nová Ves; Prameny",
        "cast_obce": "Kladská; Krásno; Nová Ves; Prameny",
        "katastralni_uzemi": "Krásno nad Teplou; Mariánské Lázně; Nová Ves u Sokolova; Prameny",
        "okres": "Cheb; Sokolov",
        "kraj": "Karlovarský kraj",
        "anotace": "Umělý vodní kanál původně nazývaný Flößgraben, čili Plavební kanál, sloužil k přivádění vody báňským provozům a k plavení báňského dřeva. Výstavba počala roku 1531 a dokončena byla 1536 dle návrhu slavkovského měřiče Hanse Roßmeisla.",
        "url": "https://www.pamatkovykatalog.cz/1000121655",
        "sjtsk": [
          -867081.0,
          -1030365.0
        ],
        "lokalizace": "hlavní definiční bod",
        "chraneno": true,
        "faze_ochrany": "památkově chráněno",
        "rok_zapisu": 2014,
        "ruian_stavebni_objekt": null,
        "v_uzemich": [
          {
            "kod": "PZ",
            "nazev": "Kladská"
          }
        ],
        "unesco": false
      }
    }
  ]
}