{
  "type": "FeatureCollection",
  "name": "Části obce (definiční body)",
  "crs": {
    "type": "name",
    "properties": {
      "name": "urn:ogc:def:crs:OGC:1.3:CRS84"
    }
  },
  "souradnicovy_system": "WGS-84 (EPSG:4326)",
  "prevedeno_z": "S-JTSK / Křovák East North (EPSG:5514)",
  "parametry_prevodu": {
    "dx_m": 570.8,
    "dy_m": 85.7,
    "dz_m": 462.8,
    "rx_vteriny": -4.998,
    "ry_vteriny": -1.587,
    "rz_vteriny": -5.261,
    "meritko_ppm": 3.56,
    "konvence": "coordinate frame"
  },
  "zdroj": "RÚIAN VFR 20260731_OB_554642_UKSH.xml",
  "licence": "CC BY 4.0 — Český úřad zeměměřický a katastrální, RÚIAN. Data se poskytují bezúplatně a i pro komerční užití, povinností je uvést zdroj. https://cuzk.gov.cz/Uvod/Produkty-a-sluzby/Otevrena-data/Otevrena-data-zakladni-informace.aspx",
  "obec": {
    "kod": "554642",
    "nazev": "Mariánské Lázně",
    "okres": "Cheb"
  },
  "generovano": "2026-08-17",
  "poznamka": "RÚIAN u částí obce hranice nevede, jen definiční bod.",
  "features": [
    {
      "type": "Feature",
      "geometry": {
        "type": "Point",
        "coordinates": [
          12.7116777,
          49.9554047
        ]
      },
      "properties": {
        "zdroj": "RÚIAN",
        "kod_casti": "91600",
        "nazev": "Úšovice",
        "kod_obce": "554642",
        "sjtsk": [
          -866137.0,
          -1039451.0
        ]
      }
    },
    {
      "type": "Feature",
      "geometry": {
        "type": "Point",
        "coordinates": [
          12.6848096,
          49.9506884
        ]
      },
      "properties": {
        "zdroj": "RÚIAN",
        "kod_casti": "91642",
        "nazev": "Hamrníky",
        "kod_obce": "554642",
        "sjtsk": [
          -868124.0,
          -1039662.0
        ]
      }
    },
    {
      "type": "Feature",
      "geometry": {
        "type": "Point",
        "coordinates": [
          12.7249501,
          49.9400448
        ]
      },
      "properties": {
        "zdroj": "RÚIAN",
        "kod_casti": "91677",
        "nazev": "Stanoviště",
        "kod_obce": "554642",
        "sjtsk": [
          -865468.0,
          -1041289.0
        ]
      }
    },
    {
      "type": "Feature",
      "geometry": {
        "type": "Point",
        "coordinates": [
          12.715929,
          49.9270506
        ]
      },
      "properties": {
        "zdroj": "RÚIAN",
        "kod_casti": "405523",
        "nazev": "Chotěnov-Skláře",
        "kod_obce": "554642",
        "sjtsk": [
          -866337.0,
          -1042613.0
        ]
      }
    },
    {
      "type": "Feature",
      "geometry": {
        "type": "Point",
        "coordinates": [
          12.7011829,
          49.9645867
        ]
      },
      "properties": {
        "zdroj": "RÚIAN",
        "kod_casti": "405531",
        "nazev": "Mariánské Lázně",
        "kod_obce": "554642",
        "sjtsk": [
          -866718.0,
          -1038323.0
        ]
      }
    },
    {
      "type": "Feature",
      "geometry": {
        "type": "Point",
        "coordinates": [
          12.6679196,
          50.0255514
        ]
      },
      "properties": {
        "zdroj": "RÚIAN",
        "kod_casti": "79359",
        "nazev": "Kladská",
        "kod_obce": "554642",
        "sjtsk": [
          -867992.0,
          -1031249.0
        ]
      }
    }
  ]
}