{
  "type": "FeatureCollection",
  "name": "Lázeňská infrastruktura z OpenStreetMap",
  "crs": {
    "type": "name",
    "properties": {
      "name": "urn:ogc:def:crs:OGC:1.3:CRS84"
    }
  },
  "souradnicovy_system": "WGS-84 (EPSG:4326)",
  "prevedeno_z": "OSM je nativně ve WGS-84, nepřevádělo se",
  "parametry_prevodu": null,
  "zdroj": "OpenStreetMap přes Overpass API",
  "licence": "ODbL 1.0 — © přispěvatelé OpenStreetMap. Uvedení zdroje je povinné, odvozené databáze se musí sdílet pod stejnou licencí. https://www.openstreetmap.org/copyright",
  "obec": {
    "kod": "554642",
    "nazev": "Mariánské Lázně",
    "okres": "Cheb"
  },
  "generovano": "2026-09-28",
  "stazena_temata": [
    "lazenstvi",
    "kultura_a_historie"
  ],
  "nestazena_temata": [
    "prameny",
    "ubytovani",
    "zelen"
  ],
  "povinna_dolozka": "© přispěvatelé OpenStreetMap",
  "features": [
    {
      "type": "Feature",
      "geometry": {
        "type": "Point",
        "coordinates": [
          12.7037336,
          49.9770891
        ]
      },
      "properties": {
        "zdroj": "OpenStreetMap",
        "osm_typ": "node",
        "osm_id": 2275736492,
        "osm_url": "https://www.openstreetmap.org/node/2275736492",
        "tema": "lazenstvi",
        "nazev": null,
        "znacky": {
          "amenity": "fountain",
          "description": "Vodotrysk Vodník v jezírku u promenády města Bad Homburgu v Mariánských Lázních",
          "ref:drobne_pamatky": "70076",
          "source:description": "drobne_pamatky",
          "wikidata": "Q123719584"
        }
      }
    },
    {
      "type": "Feature",
      "geometry": {
        "type": "Point",
        "coordinates": [
          12.7018495,
          49.9751958
        ]
      },
      "properties": {
        "zdroj": "OpenStreetMap",
        "osm_typ": "node",
        "osm_id": 5764266140,
        "osm_url": "https://www.openstreetmap.org/node/5764266140",
        "tema": "lazenstvi",
        "nazev": null,
        "znacky": {
          "amenity": "fountain"
        }
      }
    },
    {
      "type": "Feature",
      "geometry": {
        "type": "Point",
        "coordinates": [
          12.7063952,
          49.9785602
        ]
      },
      "properties": {
        "zdroj": "OpenStreetMap",
        "osm_typ": "node",
        "osm_id": 7845724813,
        "osm_url": "https://www.openstreetmap.org/node/7845724813",
        "tema": "lazenstvi",
        "nazev": null,
        "znacky": {
          "amenity": "fountain",
          "description": "Kašna v Ibsenově ulici v Mariánských Lázních",
          "ref:drobne_pamatky": "39449",
          "source:description": "drobne_pamatky",
          "wikidata": "Q104977603"
        }
      }
    },
    {
      "type": "Feature",
      "geometry": {
        "type": "Point",
        "coordinates": [
          12.7068066,
          49.9779994
        ]
      },
      "properties": {
        "zdroj": "OpenStreetMap",
        "osm_typ": "node",
        "osm_id": 13070556099,
        "osm_url": "https://www.openstreetmap.org/node/13070556099",
        "tema": "lazenstvi",
        "nazev": null,
        "znacky": {
          "amenity": "fountain",
          "description": "Kašna za pavilonem Křížového pramene v Mariánských Lázních",
          "ref:drobne_pamatky": "39348",
          "source:description": "drobne_pamatky",
          "wikidata": "Q104977665"
        }
      }
    },
    {
      "type": "Feature",
      "geometry": {
        "type": "Point",
        "coordinates": [
          12.70373,
          49.9771209
        ]
      },
      "properties": {
        "zdroj": "OpenStreetMap",
        "osm_typ": "way",
        "osm_id": 50937850,
        "osm_url": "https://www.openstreetmap.org/way/50937850",
        "tema": "lazenstvi",
        "nazev": null,
        "znacky": {
          "amenity": "fountain",
          "dibavod:id": "110010600019",
          "source": "vuv:dibavod:a05"
        }
      }
    },
    {
      "type": "Feature",
      "geometry": {
        "type": "Point",
        "coordinates": [
          12.7088195,
          49.9763893
        ]
      },
      "properties": {
        "zdroj": "OpenStreetMap",
        "osm_typ": "way",
        "osm_id": 93579651,
        "osm_url": "https://www.openstreetmap.org/way/93579651",
        "tema": "lazenstvi",
        "nazev": null,
        "znacky": {
          "amenity": "fountain",
          "description": "Kašna na Goethově náměstí v Mariánských Lázních",
          "natural": "water",
          "ref:drobne_pamatky": "39346",
          "source:description": "drobne_pamatky"
        }
      }
    },
    {
      "type": "Feature",
      "geometry": {
        "type": "Point",
        "coordinates": [
          12.7039238,
          49.9779293
        ]
      },
      "properties": {
        "zdroj": "OpenStreetMap",
        "osm_typ": "way",
        "osm_id": 93665130,
        "osm_url": "https://www.openstreetmap.org/way/93665130",
        "tema": "lazenstvi",
        "nazev": null,
        "znacky": {
          "amenity": "fountain",
          "description": "Jubilejní kašna na Mírovém náměstí v Mariánských Lázních",
          "natural": "water",
          "ref:drobne_pamatky": "39347",
          "source:description": "drobne_pamatky"
        }
      }
    },
    {
      "type": "Feature",
      "geometry": {
        "type": "Point",
        "coordinates": [
          12.7015154,
          49.960941
        ]
      },
      "properties": {
        "zdroj": "OpenStreetMap",
        "osm_typ": "way",
        "osm_id": 579240306,
        "osm_url": "https://www.openstreetmap.org/way/579240306",
        "tema": "lazenstvi",
        "nazev": null,
        "znacky": {
          "amenity": "fountain"
        }
      }
    },
    {
      "type": "Feature",
      "geometry": {
        "type": "Point",
        "coordinates": [
          12.7069413,
          49.9756649
        ]
      },
      "properties": {
        "zdroj": "OpenStreetMap",
        "osm_typ": "way",
        "osm_id": 977751608,
        "osm_url": "https://www.openstreetmap.org/way/977751608",
        "tema": "lazenstvi",
        "nazev": null,
        "znacky": {
          "amenity": "fountain",
          "covered": "no",
          "description": "Kašna u kolonády Karolinina pramene v Mariánských Lázních",
          "drinking_water": "no",
          "indoor": "no",
          "ref:drobne_pamatky": "39352",
          "source:description": "drobne_pamatky"
        }
      }
    },
    {
      "type": "Feature",
      "geometry": {
        "type": "Point",
        "coordinates": [
          12.7061602,
          49.9765836
        ]
      },
      "properties": {
        "zdroj": "OpenStreetMap",
        "osm_typ": "way",
        "osm_id": 1422415556,
        "osm_url": "https://www.openstreetmap.org/way/1422415556",
        "tema": "lazenstvi",
        "nazev": "Zpívající fontána",
        "znacky": {
          "amenity": "fountain",
          "description": "Zpívající fontána v Mariánských Lázních",
          "name": "Zpívající fontána",
          "name:de": "Singende Fontäne",
          "name:en": "Singing Fountain",
          "natural": "water",
          "ref:drobne_pamatky": "9639",
          "source:description": "drobne_pamatky",
          "tourism": "attraction",
          "wikidata": "Q10861415",
          "wikipedia": "cs:Zpívající fontána (Mariánské Lázně)"
        }
      }
    },
    {
      "type": "Feature",
      "geometry": {
        "type": "Point",
        "coordinates": [
          12.7084873,
          49.9770009
        ]
      },
      "properties": {
        "zdroj": "OpenStreetMap",
        "osm_typ": "node",
        "osm_id": 924010057,
        "osm_url": "https://www.openstreetmap.org/node/924010057",
        "tema": "kultura_a_historie",
        "nazev": "Městské muzeum",
        "znacky": {
          "name": "Městské muzeum",
          "tourism": "museum"
        }
      }
    },
    {
      "type": "Feature",
      "geometry": {
        "type": "Point",
        "coordinates": [
          12.7065428,
          49.9754005
        ]
      },
      "properties": {
        "zdroj": "OpenStreetMap",
        "osm_typ": "node",
        "osm_id": 1107936504,
        "osm_url": "https://www.openstreetmap.org/node/1107936504",
        "tema": "kultura_a_historie",
        "nazev": "Chopinův pomník",
        "znacky": {
          "historic": "memorial",
          "material": "stone",
          "memorial": "stele",
          "name": "Chopinův pomník",
          "wikidata": "Q104977657"
        }
      }
    },
    {
      "type": "Feature",
      "geometry": {
        "type": "Point",
        "coordinates": [
          12.707524,
          49.9799019
        ]
      },
      "properties": {
        "zdroj": "OpenStreetMap",
        "osm_typ": "node",
        "osm_id": 1120159255,
        "osm_url": "https://www.openstreetmap.org/node/1120159255",
        "tema": "kultura_a_historie",
        "nazev": "Pomník padlých",
        "znacky": {
          "historic": "memorial",
          "name": "Pomník padlých"
        }
      }
    },
    {
      "type": "Feature",
      "geometry": {
        "type": "Point",
        "coordinates": [
          12.7119584,
          49.9782853
        ]
      },
      "properties": {
        "zdroj": "OpenStreetMap",
        "osm_typ": "node",
        "osm_id": 1423847062,
        "osm_url": "https://www.openstreetmap.org/node/1423847062",
        "tema": "kultura_a_historie",
        "nazev": "Milenium",
        "znacky": {
          "historic": "memorial",
          "name": "Milenium",
          "name:de": "Franz-Josef-Denkmal"
        }
      }
    },
    {
      "type": "Feature",
      "geometry": {
        "type": "Point",
        "coordinates": [
          12.7079241,
          49.972806
        ]
      },
      "properties": {
        "zdroj": "OpenStreetMap",
        "osm_typ": "node",
        "osm_id": 1424318800,
        "osm_url": "https://www.openstreetmap.org/node/1424318800",
        "tema": "kultura_a_historie",
        "nazev": "Goethovo odpočívadlo",
        "znacky": {
          "historic": "memorial",
          "memorial": "stele",
          "name": "Goethovo odpočívadlo",
          "name:en": "J. W. Goethe's View",
          "source": "survey"
        }
      }
    },
    {
      "type": "Feature",
      "geometry": {
        "type": "Point",
        "coordinates": [
          12.7057957,
          49.9765614
        ]
      },
      "properties": {
        "zdroj": "OpenStreetMap",
        "osm_typ": "node",
        "osm_id": 1424318805,
        "osm_url": "https://www.openstreetmap.org/node/1424318805",
        "tema": "kultura_a_historie",
        "nazev": "Reitenbergerův pomník",
        "znacky": {
          "historic": "memorial",
          "memorial": "statue",
          "name": "Reitenbergerův pomník",
          "source": "survey",
          "wikidata": "Q104977662"
        }
      }
    },
    {
      "type": "Feature",
      "geometry": {
        "type": "Point",
        "coordinates": [
          12.7063569,
          49.9737772
        ]
      },
      "properties": {
        "zdroj": "OpenStreetMap",
        "osm_typ": "node",
        "osm_id": 2097384550,
        "osm_url": "https://www.openstreetmap.org/node/2097384550",
        "tema": "kultura_a_historie",
        "nazev": "Karlův kříž",
        "znacky": {
          "historic": "wayside_cross",
          "name": "Karlův kříž"
        }
      }
    },
    {
      "type": "Feature",
      "geometry": {
        "type": "Point",
        "coordinates": [
          12.7084315,
          49.9767019
        ]
      },
      "properties": {
        "zdroj": "OpenStreetMap",
        "osm_typ": "node",
        "osm_id": 2402451638,
        "osm_url": "https://www.openstreetmap.org/node/2402451638",
        "tema": "kultura_a_historie",
        "nazev": "Johann Wolfgang Goethe",
        "znacky": {
          "historic": "memorial",
          "memorial": "statue",
          "name": "Johann Wolfgang Goethe",
          "subject:wikidata": "Q5879",
          "subject:wikipedia": "cs:Johann Wolfgang von Goethe",
          "wikidata": "Q98119558"
        }
      }
    },
    {
      "type": "Feature",
      "geometry": {
        "type": "Point",
        "coordinates": [
          12.7084694,
          49.9525921
        ]
      },
      "properties": {
        "zdroj": "OpenStreetMap",
        "osm_typ": "node",
        "osm_id": 4418219328,
        "osm_url": "https://www.openstreetmap.org/node/4418219328",
        "tema": "kultura_a_historie",
        "nazev": null,
        "znacky": {
          "artwork_type": "statue",
          "tourism": "artwork"
        }
      }
    },
    {
      "type": "Feature",
      "geometry": {
        "type": "Point",
        "coordinates": [
          12.6825807,
          49.9686574
        ]
      },
      "properties": {
        "zdroj": "OpenStreetMap",
        "osm_typ": "node",
        "osm_id": 4485790975,
        "osm_url": "https://www.openstreetmap.org/node/4485790975",
        "tema": "kultura_a_historie",
        "nazev": "medvěd",
        "znacky": {
          "artwork_type": "statue",
          "name": "medvěd",
          "source": "survey",
          "tourism": "artwork"
        }
      }
    },
    {
      "type": "Feature",
      "geometry": {
        "type": "Point",
        "coordinates": [
          12.7031727,
          49.9713196
        ]
      },
      "properties": {
        "zdroj": "OpenStreetMap",
        "osm_typ": "node",
        "osm_id": 4485790976,
        "osm_url": "https://www.openstreetmap.org/node/4485790976",
        "tema": "kultura_a_historie",
        "nazev": "Na paměť Mariánskolázeňských židovských občanů a synagogy",
        "znacky": {
          "description": "památník na židovskou synagogu",
          "historic": "memorial",
          "memorial": "stone",
          "name": "Na paměť Mariánskolázeňských židovských občanů a synagogy",
          "wikidata": "Q24357514",
          "wikipedia": "cs:Synagoga v Mariánských Lázních"
        }
      }
    },
    {
      "type": "Feature",
      "geometry": {
        "type": "Point",
        "coordinates": [
          12.703631,
          49.9741987
        ]
      },
      "properties": {
        "zdroj": "OpenStreetMap",
        "osm_typ": "node",
        "osm_id": 4485790977,
        "osm_url": "https://www.openstreetmap.org/node/4485790977",
        "tema": "kultura_a_historie",
        "nazev": "František Josef I.",
        "znacky": {
          "historic": "memorial",
          "memorial": "statue",
          "name": "František Josef I.",
          "source": "survey;GPX;knowledge",
          "statue": "head_of_state",
          "subject:wikidata": "Q51056",
          "subject:wikipedia": "cs:František Josef I."
        }
      }
    },
    {
      "type": "Feature",
      "geometry": {
        "type": "Point",
        "coordinates": [
          12.7007028,
          49.9804945
        ]
      },
      "properties": {
        "zdroj": "OpenStreetMap",
        "osm_typ": "node",
        "osm_id": 4815149380,
        "osm_url": "https://www.openstreetmap.org/node/4815149380",
        "tema": "kultura_a_historie",
        "nazev": null,
        "znacky": {
          "tourism": "artwork"
        }
      }
    },
    {
      "type": "Feature",
      "geometry": {
        "type": "Point",
        "coordinates": [
          12.7086066,
          49.9754213
        ]
      },
      "properties": {
        "zdroj": "OpenStreetMap",
        "osm_typ": "node",
        "osm_id": 4817784030,
        "osm_url": "https://www.openstreetmap.org/node/4817784030",
        "tema": "kultura_a_historie",
        "nazev": null,
        "znacky": {
          "tourism": "artwork"
        }
      }
    },
    {
      "type": "Feature",
      "geometry": {
        "type": "Point",
        "coordinates": [
          12.7041616,
          49.9768303
        ]
      },
      "properties": {
        "zdroj": "OpenStreetMap",
        "osm_typ": "node",
        "osm_id": 4817789587,
        "osm_url": "https://www.openstreetmap.org/node/4817789587",
        "tema": "kultura_a_historie",
        "nazev": "Lion King",
        "znacky": {
          "artist_name": "Niro Sharf",
          "artwork_type": "sculpture",
          "name": "Lion King",
          "tourism": "artwork",
          "wikidata": "Q104977620"
        }
      }
    },
    {
      "type": "Feature",
      "geometry": {
        "type": "Point",
        "coordinates": [
          12.7035248,
          49.9768387
        ]
      },
      "properties": {
        "zdroj": "OpenStreetMap",
        "osm_typ": "node",
        "osm_id": 4817789588,
        "osm_url": "https://www.openstreetmap.org/node/4817789588",
        "tema": "kultura_a_historie",
        "nazev": "Who Knows?",
        "znacky": {
          "artist_name": "Alan+Christine Ward",
          "artwork_type": "sculpture",
          "name": "Who Knows?",
          "tourism": "artwork",
          "wikidata": "Q104977625"
        }
      }
    },
    {
      "type": "Feature",
      "geometry": {
        "type": "Point",
        "coordinates": [
          12.7043126,
          49.9768285
        ]
      },
      "properties": {
        "zdroj": "OpenStreetMap",
        "osm_typ": "node",
        "osm_id": 4817789589,
        "osm_url": "https://www.openstreetmap.org/node/4817789589",
        "tema": "kultura_a_historie",
        "nazev": "High Flying Diver",
        "znacky": {
          "artist_name": "Poul Cook",
          "artwork_type": "sculpture",
          "name": "High Flying Diver",
          "tourism": "artwork",
          "wikidata": "Q104977617"
        }
      }
    },
    {
      "type": "Feature",
      "geometry": {
        "type": "Point",
        "coordinates": [
          12.7044612,
          49.976811
        ]
      },
      "properties": {
        "zdroj": "OpenStreetMap",
        "osm_typ": "node",
        "osm_id": 4817789590,
        "osm_url": "https://www.openstreetmap.org/node/4817789590",
        "tema": "kultura_a_historie",
        "nazev": "Reading in the Park",
        "znacky": {
          "artist_name": "Jose Luiz Ruiz Aguila",
          "artwork_type": "sculpture",
          "name": "Reading in the Park",
          "tourism": "artwork",
          "wikidata": "Q104977615"
        }
      }
    },
    {
      "type": "Feature",
      "geometry": {
        "type": "Point",
        "coordinates": [
          12.7046237,
          49.9768254
        ]
      },
      "properties": {
        "zdroj": "OpenStreetMap",
        "osm_typ": "node",
        "osm_id": 4817789591,
        "osm_url": "https://www.openstreetmap.org/node/4817789591",
        "tema": "kultura_a_historie",
        "nazev": "Qartus",
        "znacky": {
          "artist_name": "Miroslava Nová",
          "artwork_type": "sculpture",
          "name": "Qartus",
          "source": "survey",
          "tourism": "artwork",
          "wikidata": "Q104977612"
        }
      }
    },
    {
      "type": "Feature",
      "geometry": {
        "type": "Point",
        "coordinates": [
          12.7037479,
          49.9768379
        ]
      },
      "properties": {
        "zdroj": "OpenStreetMap",
        "osm_typ": "node",
        "osm_id": 4823349568,
        "osm_url": "https://www.openstreetmap.org/node/4823349568",
        "tema": "kultura_a_historie",
        "nazev": "Fast?!",
        "znacky": {
          "artist_name": "Frank Rassbach",
          "artwork_type": "sculpture",
          "name": "Fast?!",
          "tourism": "artwork",
          "wikidata": "Q104977624"
        }
      }
    },
    {
      "type": "Feature",
      "geometry": {
        "type": "Point",
        "coordinates": [
          12.7039044,
          49.9768389
        ]
      },
      "properties": {
        "zdroj": "OpenStreetMap",
        "osm_typ": "node",
        "osm_id": 4823349569,
        "osm_url": "https://www.openstreetmap.org/node/4823349569",
        "tema": "kultura_a_historie",
        "nazev": "Something Fishy",
        "znacky": {
          "artist_name": "Robert Sloan",
          "artwork_type": "sculpture",
          "name": "Something Fishy",
          "tourism": "artwork",
          "wikidata": "Q104977621"
        }
      }
    },
    {
      "type": "Feature",
      "geometry": {
        "type": "Point",
        "coordinates": [
          12.7095777,
          49.9705972
        ]
      },
      "properties": {
        "zdroj": "OpenStreetMap",
        "osm_typ": "node",
        "osm_id": 4968915201,
        "osm_url": "https://www.openstreetmap.org/node/4968915201",
        "tema": "kultura_a_historie",
        "nazev": null,
        "znacky": {
          "historic": "wayside_cross",
          "religion": "christian",
          "source": "local knowledge;survey"
        }
      }
    },
    {
      "type": "Feature",
      "geometry": {
        "type": "Point",
        "coordinates": [
          12.6679932,
          50.0243406
        ]
      },
      "properties": {
        "zdroj": "OpenStreetMap",
        "osm_typ": "node",
        "osm_id": 5003512729,
        "osm_url": "https://www.openstreetmap.org/node/5003512729",
        "tema": "kultura_a_historie",
        "nazev": null,
        "znacky": {
          "artwork_type": "statue",
          "subject:wikidata": "Q79794",
          "subject:wikipedia": "cs:Jelen evropský",
          "tourism": "artwork"
        }
      }
    },
    {
      "type": "Feature",
      "geometry": {
        "type": "Point",
        "coordinates": [
          12.667485,
          50.0262562
        ]
      },
      "properties": {
        "zdroj": "OpenStreetMap",
        "osm_typ": "node",
        "osm_id": 5003512730,
        "osm_url": "https://www.openstreetmap.org/node/5003512730",
        "tema": "kultura_a_historie",
        "nazev": "Muzeum Kladská",
        "znacky": {
          "name": "Muzeum Kladská",
          "tourism": "museum"
        }
      }
    },
    {
      "type": "Feature",
      "geometry": {
        "type": "Point",
        "coordinates": [
          12.7073608,
          49.9789888
        ]
      },
      "properties": {
        "zdroj": "OpenStreetMap",
        "osm_typ": "node",
        "osm_id": 5109656146,
        "osm_url": "https://www.openstreetmap.org/node/5109656146",
        "tema": "kultura_a_historie",
        "nazev": "Valdštejnův pomník",
        "znacky": {
          "historic": "memorial",
          "name": "Valdštejnův pomník",
          "wikidata": "Q104977650"
        }
      }
    },
    {
      "type": "Feature",
      "geometry": {
        "type": "Point",
        "coordinates": [
          12.7065724,
          49.9779228
        ]
      },
      "properties": {
        "zdroj": "OpenStreetMap",
        "osm_typ": "node",
        "osm_id": 5221889971,
        "osm_url": "https://www.openstreetmap.org/node/5221889971",
        "tema": "kultura_a_historie",
        "nazev": "Dr. Joseph Johann Nehr",
        "znacky": {
          "historic": "memorial",
          "memorial": "bust",
          "name": "Dr. Joseph Johann Nehr",
          "wikidata": "Q104977632"
        }
      }
    },
    {
      "type": "Feature",
      "geometry": {
        "type": "Point",
        "coordinates": [
          12.7042154,
          49.9762329
        ]
      },
      "properties": {
        "zdroj": "OpenStreetMap",
        "osm_typ": "node",
        "osm_id": 5221902606,
        "osm_url": "https://www.openstreetmap.org/node/5221902606",
        "tema": "kultura_a_historie",
        "nazev": null,
        "znacky": {
          "artwork_type": "statue",
          "tourism": "artwork",
          "wikidata": "Q104977639"
        }
      }
    },
    {
      "type": "Feature",
      "geometry": {
        "type": "Point",
        "coordinates": [
          12.7056089,
          49.9755494
        ]
      },
      "properties": {
        "zdroj": "OpenStreetMap",
        "osm_typ": "node",
        "osm_id": 5221917972,
        "osm_url": "https://www.openstreetmap.org/node/5221917972",
        "tema": "kultura_a_historie",
        "nazev": "Karl Josef Heidler von Heilborn",
        "znacky": {
          "historic": "memorial",
          "inscription": "Carolo Jos Heidler nobili de Heilborn medico virtutis aquarum loci exploratori et nuncio ad recuperandam salutem inde ab annis quadraginta innumeris duci humanissimo grati Poloni ⅯⅮⅭⅭⅭⅬⅤⅠⅠⅠ",
          "material": "stone",
          "memorial": "obelisk",
          "name": "Karl Josef Heidler von Heilborn",
          "start_date": "1858",
          "wikidata": "Q104977627"
        }
      }
    },
    {
      "type": "Feature",
      "geometry": {
        "type": "Point",
        "coordinates": [
          12.7035376,
          49.9758552
        ]
      },
      "properties": {
        "zdroj": "OpenStreetMap",
        "osm_typ": "node",
        "osm_id": 5221933176,
        "osm_url": "https://www.openstreetmap.org/node/5221933176",
        "tema": "kultura_a_historie",
        "nazev": "Václav Skalník",
        "znacky": {
          "historic": "memorial",
          "memorial": "bust",
          "name": "Václav Skalník",
          "start_date": "1962",
          "subject:wikidata": "Q24576388",
          "subject:wikipedia": "cs:Václav Skalník",
          "wikidata": "Q104977649"
        }
      }
    },
    {
      "type": "Feature",
      "geometry": {
        "type": "Point",
        "coordinates": [
          12.6694009,
          50.0250548
        ]
      },
      "properties": {
        "zdroj": "OpenStreetMap",
        "osm_typ": "node",
        "osm_id": 5223771253,
        "osm_url": "https://www.openstreetmap.org/node/5223771253",
        "tema": "kultura_a_historie",
        "nazev": "Sluneční hodiny",
        "znacky": {
          "amenity": "clock",
          "display": "sundial",
          "name": "Sluneční hodiny",
          "name:de": "Sonnenuhr",
          "name:en": "Sun Dial",
          "tourism": "attraction"
        }
      }
    },
    {
      "type": "Feature",
      "geometry": {
        "type": "Point",
        "coordinates": [
          12.6681385,
          50.0266715
        ]
      },
      "properties": {
        "zdroj": "OpenStreetMap",
        "osm_typ": "node",
        "osm_id": 5223793301,
        "osm_url": "https://www.openstreetmap.org/node/5223793301",
        "tema": "kultura_a_historie",
        "nazev": "Kníže Schönburg-Waldenburg",
        "znacky": {
          "historic": "memorial",
          "inscription": "Kníže\nSchönburg-Waldenburg\nZakladatel Kladské",
          "memorial": "stone",
          "name": "Kníže Schönburg-Waldenburg"
        }
      }
    },
    {
      "type": "Feature",
      "geometry": {
        "type": "Point",
        "coordinates": [
          12.7162296,
          50.0201006
        ]
      },
      "properties": {
        "zdroj": "OpenStreetMap",
        "osm_typ": "node",
        "osm_id": 5501868240,
        "osm_url": "https://www.openstreetmap.org/node/5501868240",
        "tema": "kultura_a_historie",
        "nazev": null,
        "znacky": {
          "historic": "wayside_cross",
          "source": "survey"
        }
      }
    },
    {
      "type": "Feature",
      "geometry": {
        "type": "Point",
        "coordinates": [
          12.6938197,
          49.9541158
        ]
      },
      "properties": {
        "zdroj": "OpenStreetMap",
        "osm_typ": "node",
        "osm_id": 6221950151,
        "osm_url": "https://www.openstreetmap.org/node/6221950151",
        "tema": "kultura_a_historie",
        "nazev": null,
        "znacky": {
          "artwork_type": "statue",
          "material": "stone",
          "source": "survey",
          "tourism": "artwork"
        }
      }
    },
    {
      "type": "Feature",
      "geometry": {
        "type": "Point",
        "coordinates": [
          12.6968273,
          49.9753213
        ]
      },
      "properties": {
        "zdroj": "OpenStreetMap",
        "osm_typ": "node",
        "osm_id": 7075746787,
        "osm_url": "https://www.openstreetmap.org/node/7075746787",
        "tema": "kultura_a_historie",
        "nazev": null,
        "znacky": {
          "denomination": "catholic",
          "historic": "wayside_cross",
          "religion": "christian",
          "source": "survey"
        }
      }
    },
    {
      "type": "Feature",
      "geometry": {
        "type": "Point",
        "coordinates": [
          12.709594,
          49.9721409
        ]
      },
      "properties": {
        "zdroj": "OpenStreetMap",
        "osm_typ": "node",
        "osm_id": 8638617659,
        "osm_url": "https://www.openstreetmap.org/node/8638617659",
        "tema": "kultura_a_historie",
        "nazev": "Ing. Richarda Švandrlíka +2016",
        "znacky": {
          "historic": "memorial",
          "inscription": "Člověče postůj a vzpomeň na Ing. Richarda Švandrlíka. Historika a badatele. Podle zdejší Hameliky pojmenoval a dlouhá léta s kolegy vydával vlastivědný list města. V Mariánských Lázních žil do svého skonu v roce 2016. Čest jeho památce. Rodina a kamarádi",
          "memorial": "plaque",
          "name": "Ing. Richarda Švandrlíka +2016"
        }
      }
    },
    {
      "type": "Feature",
      "geometry": {
        "type": "Point",
        "coordinates": [
          12.7212243,
          49.9524734
        ]
      },
      "properties": {
        "zdroj": "OpenStreetMap",
        "osm_typ": "node",
        "osm_id": 8638617677,
        "osm_url": "https://www.openstreetmap.org/node/8638617677",
        "tema": "kultura_a_historie",
        "nazev": null,
        "znacky": {
          "historic": "memorial"
        }
      }
    },
    {
      "type": "Feature",
      "geometry": {
        "type": "Point",
        "coordinates": [
          12.703439,
          49.9750853
        ]
      },
      "properties": {
        "zdroj": "OpenStreetMap",
        "osm_typ": "node",
        "osm_id": 10111269664,
        "osm_url": "https://www.openstreetmap.org/node/10111269664",
        "tema": "kultura_a_historie",
        "nazev": "Dendrologická stezka Václava Skalníka",
        "znacky": {
          "name": "Dendrologická stezka Václava Skalníka",
          "source": "survey",
          "tourism": "attraction"
        }
      }
    },
    {
      "type": "Feature",
      "geometry": {
        "type": "Point",
        "coordinates": [
          12.7072176,
          49.9758888
        ]
      },
      "properties": {
        "zdroj": "OpenStreetMap",
        "osm_typ": "node",
        "osm_id": 10111269678,
        "osm_url": "https://www.openstreetmap.org/node/10111269678",
        "tema": "kultura_a_historie",
        "nazev": null,
        "znacky": {
          "artwork_type": "statue",
          "source": "survey",
          "tourism": "artwork",
          "wikidata": "Q104977631"
        }
      }
    },
    {
      "type": "Feature",
      "geometry": {
        "type": "Point",
        "coordinates": [
          12.700516,
          49.9812526
        ]
      },
      "properties": {
        "zdroj": "OpenStreetMap",
        "osm_typ": "node",
        "osm_id": 11078181156,
        "osm_url": "https://www.openstreetmap.org/node/11078181156",
        "tema": "kultura_a_historie",
        "nazev": "Johann Wolfgang Goethe",
        "znacky": {
          "historic": "memorial",
          "material": "bronze",
          "memorial": "statue",
          "name": "Johann Wolfgang Goethe",
          "source": "survey,gps",
          "subject:wikidata": "Q5879",
          "subject:wikipedia": "cs:Johann Wolfgang von Goethe",
          "url": "https://www.hamelika.cz/?cz_sousosi-goethe-a-muza,130"
        }
      }
    },
    {
      "type": "Feature",
      "geometry": {
        "type": "Point",
        "coordinates": [
          12.7005815,
          49.9810099
        ]
      },
      "properties": {
        "zdroj": "OpenStreetMap",
        "osm_typ": "node",
        "osm_id": 11078181160,
        "osm_url": "https://www.openstreetmap.org/node/11078181160",
        "tema": "kultura_a_historie",
        "nazev": "Václav Beneš Třebízský",
        "znacky": {
          "artwork_type": "stone",
          "historic": "memorial",
          "memorial": "plaque",
          "name": "Václav Beneš Třebízský",
          "source": "survey,gps",
          "wikidata": "Q104977654"
        }
      }
    },
    {
      "type": "Feature",
      "geometry": {
        "type": "Point",
        "coordinates": [
          12.7010679,
          49.961631
        ]
      },
      "properties": {
        "zdroj": "OpenStreetMap",
        "osm_typ": "node",
        "osm_id": 11415079477,
        "osm_url": "https://www.openstreetmap.org/node/11415079477",
        "tema": "kultura_a_historie",
        "nazev": null,
        "znacky": {
          "description": "Sühnestein",
          "format": "stone_cross",
          "heritage": "yes",
          "historic": "stone",
          "image": "https://commons.wikimedia.org/wiki/File:Steinkreuz_Mari%C3%A1nsk%C3%A9_L%C3%A1zn%C4%9B.jpg",
          "inscription": "1716 JWC",
          "stone_type": "conciliation_cross",
          "website": "http://www.suehnekreuz.de/tschech/karlsbad/marienbad.htm"
        }
      }
    },
    {
      "type": "Feature",
      "geometry": {
        "type": "Point",
        "coordinates": [
          12.7212131,
          49.9718197
        ]
      },
      "properties": {
        "zdroj": "OpenStreetMap",
        "osm_typ": "node",
        "osm_id": 12377052282,
        "osm_url": "https://www.openstreetmap.org/node/12377052282",
        "tema": "kultura_a_historie",
        "nazev": "Krakonoš",
        "znacky": {
          "artwork_type": "sculpture",
          "material": "stone",
          "name": "Krakonoš",
          "tourism": "artwork"
        }
      }
    },
    {
      "type": "Feature",
      "geometry": {
        "type": "Point",
        "coordinates": [
          12.7211781,
          49.9716358
        ]
      },
      "properties": {
        "zdroj": "OpenStreetMap",
        "osm_typ": "node",
        "osm_id": 12377052298,
        "osm_url": "https://www.openstreetmap.org/node/12377052298",
        "tema": "kultura_a_historie",
        "nazev": "Miroslav Horníček",
        "znacky": {
          "artist_name": "František Bednář",
          "artwork_type": "statue",
          "material": "wood",
          "name": "Miroslav Horníček",
          "tourism": "artwork"
        }
      }
    },
    {
      "type": "Feature",
      "geometry": {
        "type": "Point",
        "coordinates": [
          12.6983785,
          49.9835874
        ]
      },
      "properties": {
        "zdroj": "OpenStreetMap",
        "osm_typ": "node",
        "osm_id": 13070545217,
        "osm_url": "https://www.openstreetmap.org/node/13070545217",
        "tema": "kultura_a_historie",
        "nazev": null,
        "znacky": {
          "tourism": "artwork"
        }
      }
    },
    {
      "type": "Feature",
      "geometry": {
        "type": "Point",
        "coordinates": [
          12.7063435,
          49.9760769
        ]
      },
      "properties": {
        "zdroj": "OpenStreetMap",
        "osm_typ": "node",
        "osm_id": 13070582372,
        "osm_url": "https://www.openstreetmap.org/node/13070582372",
        "tema": "kultura_a_historie",
        "nazev": "Meteorologický sloup",
        "znacky": {
          "historic": "memorial",
          "name": "Meteorologický sloup"
        }
      }
    },
    {
      "type": "Feature",
      "geometry": {
        "type": "Point",
        "coordinates": [
          12.7062092,
          49.9773931
        ]
      },
      "properties": {
        "zdroj": "OpenStreetMap",
        "osm_typ": "node",
        "osm_id": 13070616554,
        "osm_url": "https://www.openstreetmap.org/node/13070616554",
        "tema": "kultura_a_historie",
        "nazev": "Václav Skalník",
        "znacky": {
          "historic": "memorial",
          "name": "Václav Skalník",
          "wikidata": "Q104977634"
        }
      }
    },
    {
      "type": "Feature",
      "geometry": {
        "type": "Point",
        "coordinates": [
          12.7065052,
          49.9764965
        ]
      },
      "properties": {
        "zdroj": "OpenStreetMap",
        "osm_typ": "node",
        "osm_id": 13070631274,
        "osm_url": "https://www.openstreetmap.org/node/13070631274",
        "tema": "kultura_a_historie",
        "nazev": "Petr Hapka",
        "znacky": {
          "historic": "memorial",
          "memorial": "bust",
          "name": "Petr Hapka",
          "subject:wikidata": "Q1348605",
          "subject:wikipedia": "cs:Petr Hapka",
          "wikidata": "Q104977664"
        }
      }
    },
    {
      "type": "Feature",
      "geometry": {
        "type": "Point",
        "coordinates": [
          12.7060861,
          49.9750117
        ]
      },
      "properties": {
        "zdroj": "OpenStreetMap",
        "osm_typ": "node",
        "osm_id": 13070645163,
        "osm_url": "https://www.openstreetmap.org/node/13070645163",
        "tema": "kultura_a_historie",
        "nazev": null,
        "znacky": {
          "artwork_type": "statue",
          "tourism": "artwork"
        }
      }
    },
    {
      "type": "Feature",
      "geometry": {
        "type": "Point",
        "coordinates": [
          12.7040111,
          49.9756212
        ]
      },
      "properties": {
        "zdroj": "OpenStreetMap",
        "osm_typ": "node",
        "osm_id": 13070650190,
        "osm_url": "https://www.openstreetmap.org/node/13070650190",
        "tema": "kultura_a_historie",
        "nazev": null,
        "znacky": {
          "historic": "memorial"
        }
      }
    },
    {
      "type": "Feature",
      "geometry": {
        "type": "Point",
        "coordinates": [
          12.7038389,
          49.9765051
        ]
      },
      "properties": {
        "zdroj": "OpenStreetMap",
        "osm_typ": "node",
        "osm_id": 13070651683,
        "osm_url": "https://www.openstreetmap.org/node/13070651683",
        "tema": "kultura_a_historie",
        "nazev": null,
        "znacky": {
          "artwork_type": "statue",
          "tourism": "artwork",
          "wikidata": "Q104977647"
        }
      }
    },
    {
      "type": "Feature",
      "geometry": {
        "type": "Point",
        "coordinates": [
          12.7050981,
          49.9768084
        ]
      },
      "properties": {
        "zdroj": "OpenStreetMap",
        "osm_typ": "node",
        "osm_id": 13070692065,
        "osm_url": "https://www.openstreetmap.org/node/13070692065",
        "tema": "kultura_a_historie",
        "nazev": null,
        "znacky": {
          "tourism": "artwork",
          "wikidata": "Q104977610"
        }
      }
    },
    {
      "type": "Feature",
      "geometry": {
        "type": "Point",
        "coordinates": [
          12.7085912,
          49.9757443
        ]
      },
      "properties": {
        "zdroj": "OpenStreetMap",
        "osm_typ": "node",
        "osm_id": 13072866655,
        "osm_url": "https://www.openstreetmap.org/node/13072866655",
        "tema": "kultura_a_historie",
        "nazev": null,
        "znacky": {
          "artwork_type": "bust",
          "tourism": "artwork",
          "wikidata": "Q78781421"
        }
      }
    },
    {
      "type": "Feature",
      "geometry": {
        "type": "Point",
        "coordinates": [
          12.7111668,
          49.9757481
        ]
      },
      "properties": {
        "zdroj": "OpenStreetMap",
        "osm_typ": "node",
        "osm_id": 13072870937,
        "osm_url": "https://www.openstreetmap.org/node/13072870937",
        "tema": "kultura_a_historie",
        "nazev": null,
        "znacky": {
          "historic": "memorial",
          "memorial": "plaque"
        }
      }
    },
    {
      "type": "Feature",
      "geometry": {
        "type": "Point",
        "coordinates": [
          12.7078846,
          49.9760062
        ]
      },
      "properties": {
        "zdroj": "OpenStreetMap",
        "osm_typ": "node",
        "osm_id": 13072873560,
        "osm_url": "https://www.openstreetmap.org/node/13072873560",
        "tema": "kultura_a_historie",
        "nazev": null,
        "znacky": {
          "historic": "wayside_cross"
        }
      }
    },
    {
      "type": "Feature",
      "geometry": {
        "type": "Point",
        "coordinates": [
          12.7069041,
          49.9765057
        ]
      },
      "properties": {
        "zdroj": "OpenStreetMap",
        "osm_typ": "node",
        "osm_id": 13072876176,
        "osm_url": "https://www.openstreetmap.org/node/13072876176",
        "tema": "kultura_a_historie",
        "nazev": null,
        "znacky": {
          "artwork_type": "statue",
          "tourism": "artwork"
        }
      }
    },
    {
      "type": "Feature",
      "geometry": {
        "type": "Point",
        "coordinates": [
          12.7056949,
          49.9776939
        ]
      },
      "properties": {
        "zdroj": "OpenStreetMap",
        "osm_typ": "node",
        "osm_id": 13072886888,
        "osm_url": "https://www.openstreetmap.org/node/13072886888",
        "tema": "kultura_a_historie",
        "nazev": null,
        "znacky": {
          "artwork_type": "statue",
          "tourism": "artwork"
        }
      }
    },
    {
      "type": "Feature",
      "geometry": {
        "type": "Point",
        "coordinates": [
          12.7110776,
          49.9757565
        ]
      },
      "properties": {
        "zdroj": "OpenStreetMap",
        "osm_typ": "node",
        "osm_id": 13072887801,
        "osm_url": "https://www.openstreetmap.org/node/13072887801",
        "tema": "kultura_a_historie",
        "nazev": null,
        "znacky": {
          "historic": "memorial",
          "memorial": "plaque"
        }
      }
    },
    {
      "type": "Feature",
      "geometry": {
        "type": "Point",
        "coordinates": [
          12.7056352,
          49.9777188
        ]
      },
      "properties": {
        "zdroj": "OpenStreetMap",
        "osm_typ": "node",
        "osm_id": 13072893171,
        "osm_url": "https://www.openstreetmap.org/node/13072893171",
        "tema": "kultura_a_historie",
        "nazev": null,
        "znacky": {
          "artwork_type": "statue",
          "tourism": "artwork"
        }
      }
    },
    {
      "type": "Feature",
      "geometry": {
        "type": "Point",
        "coordinates": [
          12.7037347,
          49.9781809
        ]
      },
      "properties": {
        "zdroj": "OpenStreetMap",
        "osm_typ": "node",
        "osm_id": 13072913809,
        "osm_url": "https://www.openstreetmap.org/node/13072913809",
        "tema": "kultura_a_historie",
        "nazev": "Ivan A. Gončarov",
        "znacky": {
          "historic": "memorial",
          "memorial": "plaque",
          "name": "Ivan A. Gončarov",
          "wikidata": "Q104977607"
        }
      }
    },
    {
      "type": "Feature",
      "geometry": {
        "type": "Point",
        "coordinates": [
          12.7047842,
          49.9781843
        ]
      },
      "properties": {
        "zdroj": "OpenStreetMap",
        "osm_typ": "node",
        "osm_id": 13072924795,
        "osm_url": "https://www.openstreetmap.org/node/13072924795",
        "tema": "kultura_a_historie",
        "nazev": "Maxim Gorkij",
        "znacky": {
          "historic": "memorial",
          "memorial": "plaque",
          "name": "Maxim Gorkij",
          "wikidata": "Q104977602"
        }
      }
    },
    {
      "type": "Feature",
      "geometry": {
        "type": "Point",
        "coordinates": [
          12.7040397,
          49.9787242
        ]
      },
      "properties": {
        "zdroj": "OpenStreetMap",
        "osm_typ": "node",
        "osm_id": 13072951098,
        "osm_url": "https://www.openstreetmap.org/node/13072951098",
        "tema": "kultura_a_historie",
        "nazev": "Vladimir Nabokov",
        "znacky": {
          "historic": "memorial",
          "memorial": "plaque",
          "name": "Vladimir Nabokov",
          "wikidata": "Q104977597"
        }
      }
    },
    {
      "type": "Feature",
      "geometry": {
        "type": "Point",
        "coordinates": [
          12.7031023,
          49.9753576
        ]
      },
      "properties": {
        "zdroj": "OpenStreetMap",
        "osm_typ": "node",
        "osm_id": 13072994786,
        "osm_url": "https://www.openstreetmap.org/node/13072994786",
        "tema": "kultura_a_historie",
        "nazev": "Fryderyk Chopin",
        "znacky": {
          "historic": "memorial",
          "memorial": "plaque",
          "name": "Fryderyk Chopin"
        }
      }
    },
    {
      "type": "Feature",
      "geometry": {
        "type": "Point",
        "coordinates": [
          12.7005283,
          49.981244
        ]
      },
      "properties": {
        "zdroj": "OpenStreetMap",
        "osm_typ": "node",
        "osm_id": 13150287882,
        "osm_url": "https://www.openstreetmap.org/node/13150287882",
        "tema": "kultura_a_historie",
        "nazev": "Ulrika von Levetzow",
        "znacky": {
          "historic": "memorial",
          "material": "bronze",
          "memorial": "statue",
          "name": "Ulrika von Levetzow",
          "source": "survey,gps",
          "subject:wikidata": "Q64187",
          "subject:wikipedia": "cs:Ulrika von Levetzow",
          "url": "https://www.hamelika.cz/?cz_sousosi-goethe-a-muza,130"
        }
      }
    },
    {
      "type": "Feature",
      "geometry": {
        "type": "Point",
        "coordinates": [
          12.7036156,
          49.9741897
        ]
      },
      "properties": {
        "zdroj": "OpenStreetMap",
        "osm_typ": "node",
        "osm_id": 13150367214,
        "osm_url": "https://www.openstreetmap.org/node/13150367214",
        "tema": "kultura_a_historie",
        "nazev": "Eduard VII.",
        "znacky": {
          "historic": "memorial",
          "memorial": "statue",
          "name": "Eduard VII.",
          "statue": "head_of_state",
          "subject:wikidata": "Q20875",
          "subject:wikipedia": "cs:Eduard VII."
        }
      }
    },
    {
      "type": "Feature",
      "geometry": {
        "type": "Point",
        "coordinates": [
          12.7016702,
          49.9686604
        ]
      },
      "properties": {
        "zdroj": "OpenStreetMap",
        "osm_typ": "node",
        "osm_id": 13304413377,
        "osm_url": "https://www.openstreetmap.org/node/13304413377",
        "tema": "kultura_a_historie",
        "nazev": "Zrcadlový labyrint",
        "znacky": {
          "attraction": "maze",
          "name": "Zrcadlový labyrint",
          "tourism": "attraction",
          "website": "https://www.flinfo.cz/cz/zajimavosti-v-regionu/zrcadlovy-labyrint-v-marianskych-laznich"
        }
      }
    },
    {
      "type": "Feature",
      "geometry": {
        "type": "Point",
        "coordinates": [
          12.701103,
          49.978684
        ]
      },
      "properties": {
        "zdroj": "OpenStreetMap",
        "osm_typ": "node",
        "osm_id": 13471011365,
        "osm_url": "https://www.openstreetmap.org/node/13471011365",
        "tema": "kultura_a_historie",
        "nazev": null,
        "znacky": {
          "description": "Pamětní deska Václava Beneše Třebízského na domě Třebízského113/11 v Mariánských Lázních",
          "historic": "memorial",
          "memorial": "plaque",
          "ref:drobne_pamatky": "39447",
          "source:description": "drobne_pamatky"
        }
      }
    },
    {
      "type": "Feature",
      "geometry": {
        "type": "Point",
        "coordinates": [
          12.697954,
          49.982809
        ]
      },
      "properties": {
        "zdroj": "OpenStreetMap",
        "osm_typ": "node",
        "osm_id": 13471012444,
        "osm_url": "https://www.openstreetmap.org/node/13471012444",
        "tema": "kultura_a_historie",
        "nazev": null,
        "znacky": {
          "description": "Pamětní deska Theodora Lessinga na domě Třebízského 213/33 v Mariánských Lázních",
          "historic": "memorial",
          "memorial": "plaque",
          "ref:drobne_pamatky": "39451",
          "source:description": "drobne_pamatky"
        }
      }
    },
    {
      "type": "Feature",
      "geometry": {
        "type": "Point",
        "coordinates": [
          12.701933,
          49.967209
        ]
      },
      "properties": {
        "zdroj": "OpenStreetMap",
        "osm_typ": "node",
        "osm_id": 13471014027,
        "osm_url": "https://www.openstreetmap.org/node/13471014027",
        "tema": "kultura_a_historie",
        "nazev": null,
        "znacky": {
          "description": "Pamětní deska Sigmunda Freuda na Městské knihovně v Mariánských Lázních",
          "historic": "memorial",
          "memorial": "plaque",
          "ref:drobne_pamatky": "39454",
          "source:description": "drobne_pamatky"
        }
      }
    },
    {
      "type": "Feature",
      "geometry": {
        "type": "Point",
        "coordinates": [
          12.698069,
          49.97594
        ]
      },
      "properties": {
        "zdroj": "OpenStreetMap",
        "osm_typ": "node",
        "osm_id": 13482695566,
        "osm_url": "https://www.openstreetmap.org/node/13482695566",
        "tema": "kultura_a_historie",
        "nazev": null,
        "znacky": {
          "description": "Pomník nejasného účelu v parku v Mariánských Lázních",
          "historic": "memorial",
          "ref:drobne_pamatky": "39364",
          "source:description": "drobne_pamatky"
        }
      }
    },
    {
      "type": "Feature",
      "geometry": {
        "type": "Point",
        "coordinates": [
          12.703327,
          49.960678
        ]
      },
      "properties": {
        "zdroj": "OpenStreetMap",
        "osm_typ": "node",
        "osm_id": 13544151854,
        "osm_url": "https://www.openstreetmap.org/node/13544151854",
        "tema": "kultura_a_historie",
        "nazev": null,
        "znacky": {
          "artwork_type": "statue",
          "description": "Socha Matka a dítě v parku u nemocnice v Mariánských Lázních",
          "ref:drobne_pamatky": "39374",
          "source:description": "drobne_pamatky",
          "tourism": "artwork"
        }
      }
    },
    {
      "type": "Feature",
      "geometry": {
        "type": "Point",
        "coordinates": [
          12.707946,
          49.961402
        ]
      },
      "properties": {
        "zdroj": "OpenStreetMap",
        "osm_typ": "node",
        "osm_id": 13544151855,
        "osm_url": "https://www.openstreetmap.org/node/13544151855",
        "tema": "kultura_a_historie",
        "nazev": null,
        "znacky": {
          "artwork_type": "statue",
          "description": "Socha Objetí v parku u Ferdinandova pramene v Mariánských Lázních",
          "ref:drobne_pamatky": "39382",
          "source:description": "drobne_pamatky",
          "tourism": "artwork"
        }
      }
    },
    {
      "type": "Feature",
      "geometry": {
        "type": "Point",
        "coordinates": [
          12.70729,
          49.962098
        ]
      },
      "properties": {
        "zdroj": "OpenStreetMap",
        "osm_typ": "node",
        "osm_id": 13544151856,
        "osm_url": "https://www.openstreetmap.org/node/13544151856",
        "tema": "kultura_a_historie",
        "nazev": null,
        "znacky": {
          "artwork_type": "statue",
          "description": "Socha Jaro u Ferdinandova pramene v Mariánských Lázních",
          "ref:drobne_pamatky": "39381",
          "source:description": "drobne_pamatky",
          "tourism": "artwork"
        }
      }
    },
    {
      "type": "Feature",
      "geometry": {
        "type": "Point",
        "coordinates": [
          12.703318,
          49.972222
        ]
      },
      "properties": {
        "zdroj": "OpenStreetMap",
        "osm_typ": "node",
        "osm_id": 13544151857,
        "osm_url": "https://www.openstreetmap.org/node/13544151857",
        "tema": "kultura_a_historie",
        "nazev": null,
        "znacky": {
          "artwork_type": "statue",
          "description": "Socha Roční doby v parku Střed v Mariánských Lázních",
          "ref:drobne_pamatky": "39384",
          "source:description": "drobne_pamatky",
          "tourism": "artwork"
        }
      }
    },
    {
      "type": "Feature",
      "geometry": {
        "type": "Point",
        "coordinates": [
          12.708629,
          49.977337
        ]
      },
      "properties": {
        "zdroj": "OpenStreetMap",
        "osm_typ": "node",
        "osm_id": 13544151858,
        "osm_url": "https://www.openstreetmap.org/node/13544151858",
        "tema": "kultura_a_historie",
        "nazev": null,
        "znacky": {
          "artwork_type": "statue",
          "description": "Socha ženy s květy v Lesní ulici v Mariánských Lázních",
          "ref:drobne_pamatky": "39448",
          "source:description": "drobne_pamatky",
          "tourism": "artwork"
        }
      }
    },
    {
      "type": "Feature",
      "geometry": {
        "type": "Point",
        "coordinates": [
          12.701573,
          49.973646
        ]
      },
      "properties": {
        "zdroj": "OpenStreetMap",
        "osm_typ": "node",
        "osm_id": 13544151968,
        "osm_url": "https://www.openstreetmap.org/node/13544151968",
        "tema": "kultura_a_historie",
        "nazev": null,
        "znacky": {
          "artwork_type": "statue",
          "description": "Socha Volejbalistky v Mariánských Lázních",
          "ref:drobne_pamatky": "41140",
          "source:description": "drobne_pamatky",
          "tourism": "artwork"
        }
      }
    },
    {
      "type": "Feature",
      "geometry": {
        "type": "Point",
        "coordinates": [
          12.7061927,
          49.9810056
        ]
      },
      "properties": {
        "zdroj": "OpenStreetMap",
        "osm_typ": "node",
        "osm_id": 13714533050,
        "osm_url": "https://www.openstreetmap.org/node/13714533050",
        "tema": "kultura_a_historie",
        "nazev": "Amalie",
        "znacky": {
          "historic": "memorial",
          "memorial": "stone",
          "name": "Amalie"
        }
      }
    },
    {
      "type": "Feature",
      "geometry": {
        "type": "Point",
        "coordinates": [
          12.7093245,
          49.9596064
        ]
      },
      "properties": {
        "zdroj": "OpenStreetMap",
        "osm_typ": "way",
        "osm_id": 66974530,
        "osm_url": "https://www.openstreetmap.org/way/66974530",
        "tema": "kultura_a_historie",
        "nazev": "Pavilon Rudolfova Pramene",
        "znacky": {
          "building": "roof",
          "building:ruian:type": "19",
          "historic": "building",
          "name": "Pavilon Rudolfova Pramene",
          "name:de": "Pavillion der Rudolfsquelle",
          "ref:ruian:building": "38796538",
          "source": "cuzk:ruian",
          "survey:date": "2021-08-04"
        }
      }
    },
    {
      "type": "Feature",
      "geometry": {
        "type": "Point",
        "coordinates": [
          12.7072466,
          49.9623294
        ]
      },
      "properties": {
        "zdroj": "OpenStreetMap",
        "osm_typ": "way",
        "osm_id": 66974532,
        "osm_url": "https://www.openstreetmap.org/way/66974532",
        "tema": "kultura_a_historie",
        "nazev": "Kolonáda Ferdinandův pramen",
        "znacky": {
          "building": "yes",
          "building:levels": "1",
          "building:ruian:type": "3",
          "historic": "yes",
          "name": "Kolonáda Ferdinandův pramen",
          "ref:ruian:building": "24566942",
          "roof:levels": "1",
          "roof:shape": "gabled",
          "source": "cuzk:ruian"
        }
      }
    },
    {
      "type": "Feature",
      "geometry": {
        "type": "Point",
        "coordinates": [
          12.7024449,
          49.9778997
        ]
      },
      "properties": {
        "zdroj": "OpenStreetMap",
        "osm_typ": "way",
        "osm_id": 89275947,
        "osm_url": "https://www.openstreetmap.org/way/89275947",
        "tema": "kultura_a_historie",
        "nazev": "Městské divadlo Mariánské Lázně",
        "znacky": {
          "addr:city": "Mariánské Lázně",
          "addr:conscriptionnumber": "106",
          "addr:country": "CZ",
          "addr:housenumber": "106/1",
          "addr:place": "Mariánské Lázně",
          "addr:postcode": "35301",
          "addr:street": "Třebízského",
          "addr:streetnumber": "1",
          "amenity": "theatre",
          "building": "public",
          "building:flats": "1",
          "building:levels": "3",
          "building:ruian:type": "7",
          "name": "Městské divadlo Mariánské Lázně",
          "old_name": "Divadlo N. V. Gogola",
          "ref:ruian:addr": "20926600",
          "ref:ruian:building": "20685467",
          "source": "cuzk:ruian",
          "website": "https://www.divadloml.cz/",
          "wikidata": "Q31727028",
          "wikipedia": "cs:Městské divadlo (Mariánské Lázně)"
        }
      }
    },
    {
      "type": "Feature",
      "geometry": {
        "type": "Point",
        "coordinates": [
          12.7070876,
          49.9755351
        ]
      },
      "properties": {
        "zdroj": "OpenStreetMap",
        "osm_typ": "way",
        "osm_id": 95542967,
        "osm_url": "https://www.openstreetmap.org/way/95542967",
        "tema": "kultura_a_historie",
        "nazev": "pavilon Rudolfova a Karolinina pramene",
        "znacky": {
          "building": "roof",
          "building:ruian:type": "19",
          "historic": "building",
          "layer": "1",
          "name": "pavilon Rudolfova a Karolinina pramene",
          "ref:ruian:building": "38789868",
          "sorting_name": "Rudolfova a Karolinina pramene",
          "source": "cuzk:ruian",
          "survey:date": "2021-08-02"
        }
      }
    },
    {
      "type": "Feature",
      "geometry": {
        "type": "Point",
        "coordinates": [
          12.7143077,
          50.0223539
        ]
      },
      "properties": {
        "zdroj": "OpenStreetMap",
        "osm_typ": "way",
        "osm_id": 100037432,
        "osm_url": "https://www.openstreetmap.org/way/100037432",
        "tema": "kultura_a_historie",
        "nazev": "Ringval Strážiště",
        "znacky": {
          "historic": "archaeological_site",
          "name": "Ringval Strážiště",
          "source": "GPX;survey;Maxar Premium"
        }
      }
    },
    {
      "type": "Feature",
      "geometry": {
        "type": "Point",
        "coordinates": [
          12.6879596,
          49.9543159
        ]
      },
      "properties": {
        "zdroj": "OpenStreetMap",
        "osm_typ": "way",
        "osm_id": 140166392,
        "osm_url": "https://www.openstreetmap.org/way/140166392",
        "tema": "kultura_a_historie",
        "nazev": "Hamrnický zámeček",
        "znacky": {
          "building": "residential",
          "building:flats": "2",
          "building:ruian:type": "3",
          "historic": "castle",
          "name": "Hamrnický zámeček",
          "name:de": "Hammerhof",
          "old_name": "Hamrnický dvůr",
          "ref:ruian:building": "24565806",
          "ruins": "yes",
          "source": "cuzk:ruian",
          "wikidata": "Q24326882",
          "wikipedia": "cs:Hamrnický zámeček"
        }
      }
    },
    {
      "type": "Feature",
      "geometry": {
        "type": "Point",
        "coordinates": [
          12.704379,
          49.9740574
        ]
      },
      "properties": {
        "zdroj": "OpenStreetMap",
        "osm_typ": "way",
        "osm_id": 819821184,
        "osm_url": "https://www.openstreetmap.org/way/819821184",
        "tema": "kultura_a_historie",
        "nazev": "sv. Jan Nepomucký",
        "znacky": {
          "historic": "memorial",
          "memorial": "statue",
          "name": "sv. Jan Nepomucký",
          "wikidata": "Q104977659"
        }
      }
    },
    {
      "type": "Feature",
      "geometry": {
        "type": "Point",
        "coordinates": [
          12.7005222,
          49.9812483
        ]
      },
      "properties": {
        "zdroj": "OpenStreetMap",
        "osm_typ": "relation",
        "osm_id": 19613038,
        "osm_url": "https://www.openstreetmap.org/relation/19613038",
        "tema": "kultura_a_historie",
        "nazev": "Goethe a Múza",
        "znacky": {
          "historic": "memorial",
          "material": "bronze",
          "memorial": "statue",
          "name": "Goethe a Múza",
          "type": "site",
          "url": "https://www.hamelika.cz/?cz_sousosi-goethe-a-muza,130",
          "wikidata": "Q104977739"
        }
      }
    },
    {
      "type": "Feature",
      "geometry": {
        "type": "Point",
        "coordinates": [
          12.7036233,
          49.9741942
        ]
      },
      "properties": {
        "zdroj": "OpenStreetMap",
        "osm_typ": "relation",
        "osm_id": 19613116,
        "osm_url": "https://www.openstreetmap.org/relation/19613116",
        "tema": "kultura_a_historie",
        "nazev": "František Josef I. a Eduard VII.",
        "znacky": {
          "historic": "memorial",
          "memorial": "statue",
          "name": "František Josef I. a Eduard VII.",
          "statue": "head_of_state",
          "type": "site",
          "wikidata": "Q104977740"
        }
      }
    }
  ]
}